"","RowTree","d13C","totalN","totalC","UniqueID","Yearplanted","Current.name","TaxonoriginalDN","Section","PackedForSequencing","Diam.1.Bark","Diam.2.Bark","Diam.1.peeled","Diam.2.peeled","Volume.wood","Leaf.dry.weight","Wood.dry.weight","Taxonsimplified_DN","Acceptedname_ALA","Note.Gbif","Taxonresolution_ALA","Collector","Provenance","Latitudedegrees","Latitudeminutes","Latitudeseconds","Longitudedegrees","Longitudeminutes","Longitudeseconds","Row","Tree","StatusFeb2016","Drought2019","Drought2019Scale","Drought2020","Drought2020Scale","Recovery2019.2020","Regrowth","RegrowthLocation","RegrowthAge","Regrowthdieback","Timesincedeath.June2019.","Drought2006","MaturityMar2020","Maturity.at.June.2019","Yearplanted.1","Drought2006Scale","latitude","longitude","Binomial.Dean.Nicolle","Stateoccurrence","Regeneration.Strategy","CCA","ai_et0","et0_yr","AICorrected","MAT","TWQ","TCQ","MAP","PWM","PDM","PS","PWarmQ","PDQ","PWetQ","PCQ","MDR","ISOT","TS","MaxTWM","MinTCM","TAR","MTWQ","MeanTDQ","et0_yr_corrected","PrecDeficit","ConsevationStatusNSW"
"1","R052/T10",-30.57,1,50,674,1994,"Eucalyptus sideroxylon","Eucalyptus sideroxylon","Adnataria","x",7.42,7.44,6.48,5.85,1.51,2.9939,0.95,"Eucalyptus sideroxylon","Eucalyptus sideroxylon","","Species","D.Nicolle","Wallangarra, Qld",28,54,3,151,54,28,52,10,"Alive","None evident","0","None evident","0","?","","","","","","None evident","","",1994,"0",-28.90083333,151.9077778,"Eucalyptus sideroxylon","NSW,Vic,Qld","Combination","Y",5225,1609,0.5225,15.20833,20.73333,8.95,841,110,37,36.45587,318,134,318,134,12.35,49.00793,476.1247,27.2,2,25.2,20.73333,8.95,0.1609,840.8391,""
"2","R052/T12",-30.01,1.4,51.4,674,1994,"Eucalyptus sideroxylon","Eucalyptus sideroxylon","Adnataria","x",9.01,9.27,7.22,7.42,1.73,2.0786,1.11,"Eucalyptus sideroxylon","Eucalyptus sideroxylon","","Species","D.Nicolle","Wallangarra, Qld",28,54,3,151,54,28,52,12,"Alive","None evident","0","None evident","0","?","","","","","","None evident","Flowered","Flowered",1994,"0",-28.90083333,151.9077778,"Eucalyptus sideroxylon","NSW,Vic,Qld","Combination","Y",5225,1609,0.5225,15.20833,20.73333,8.95,841,110,37,36.45587,318,134,318,134,12.35,49.00793,476.1247,27.2,2,25.2,20.73333,8.95,0.1609,840.8391,""
"3","R053/T05",-28.64,1.2,50.1,685,1994,"EucalyptusÂ fibrosaÂ subsp.Â nubilis","Eucalyptus nubilis","Adnataria","x",9.59,10.09,7.23,7.47,1.97,3.729,1.34,"Eucalyptus nubilis","Eucalyptus fibrosa subsp. nubilis","","Subspecies","D.Nicolle","Tara, Qld",27,3,22,150,30,34,53,5,"Alive","None evident","0","None evident","0","?","","","","","","None evident","Flowered","Flowered",1994,"0",-27.05611111,150.5094444,"Eucalyptus nubilis","Qld,NSW","Combination","Y",3134,1962,0.3134,18.95417,24.86667,12.05,615,91,25,41.93191,241,87,241,87,12.79167,47.90886,519.9802,31.4,4.7,26.7,24.86667,12.05,0.1962,614.8038,""
"4","R053/T06",-30.2,0.9,50.3,685,1994,"EucalyptusÂ fibrosaÂ subsp.Â nubilis","Eucalyptus nubilis","Adnataria","x",10.43,10.5,9.06,79,2.67,4.6829,1.87,"Eucalyptus nubilis","Eucalyptus fibrosa subsp. nubilis","","Subspecies","D.Nicolle","Tara, Qld",27,3,22,150,30,34,53,6,"Alive","None evident","0","None evident","0","?","","","","","","None evident","Flowered","Flowered",1994,"0",-27.05611111,150.5094444,"Eucalyptus nubilis","Qld,NSW","Combination","Y",3134,1962,0.3134,18.95417,24.86667,12.05,615,91,25,41.93191,241,87,241,87,12.79167,47.90886,519.9802,31.4,4.7,26.7,24.86667,12.05,0.1962,614.8038,""
"5","R053/T08",-30.63,0.7,50.5,685,1994,"EucalyptusÂ fibrosaÂ subsp.Â nubilis","Eucalyptus nubilis","Adnataria","x",8.42,8.28,6.5,6.36,1.61,5.8074,1.09,"Eucalyptus nubilis","Eucalyptus fibrosa subsp. nubilis","","Subspecies","D.Nicolle","Tara, Qld",27,3,22,150,30,34,53,8,"Alive","None evident","0","Slight","1","?","None evident","","","","","None evident","Flowered","Flowered",1994,"0",-27.05611111,150.5094444,"Eucalyptus nubilis","Qld,NSW","Combination","Y",3134,1962,0.3134,18.95417,24.86667,12.05,615,91,25,41.93191,241,87,241,87,12.79167,47.90886,519.9802,31.4,4.7,26.7,24.86667,12.05,0.1962,614.8038,""
"6","R053/T09",-28.94,1.2,50.6,639,1994,"Eucalyptus paniculata","Eucalyptus paniculata (subsp. matutina)","Adnataria","x",11.27,12,8.58,9.65,3.75,1.7422,2.48,"Eucalyptus paniculata","Eucalyptus paniculata","","Species","D.Nicolle","Nelson Bay, NSW",32,44,0,152,10,45,53,9,"Alive","None evident","0","None evident","0","?","","","","","","None evident","Flowered","Flowered",1994,"0",-32.73333333,152.1791667,"Eucalyptus paniculata","NSW","Combination","Y",8180,1590,0.818,18.075,22.05,13.68333,1301,151,73,24.49396,421,243,295,337,7.766666,46.23016,341.2111,26,9.2,16.8,16.68333,15.65,0.159,1300.841,""
"7","R053/T10",-27.84,0.9,49.4,639,1994,"Eucalyptus paniculata","Eucalyptus paniculata (subsp. matutina)","Adnataria","x",9.38,8.8,7.24,7.69,2.4,3.3035,1.7,"Eucalyptus paniculata","Eucalyptus paniculata","","Species","D.Nicolle","Nelson Bay, NSW",32,44,0,152,10,45,53,10,"Alive","None evident","0","Slight","1","?","None evident","","","","","None evident","Flowered","Flowered",1994,"0",-32.73333333,152.1791667,"Eucalyptus paniculata","NSW","Combination","Y",8180,1590,0.818,18.075,22.05,13.68333,1301,151,73,24.49396,421,243,295,337,7.766666,46.23016,341.2111,26,9.2,16.8,16.68333,15.65,0.159,1300.841,""
"8","R053/T11",-27.77,1,49.7,639,1994,"Eucalyptus paniculata","Eucalyptus paniculata (subsp. matutina)","Adnataria","x",9.68,10.25,6.93,7.81,2.1,3.3312,1.46,"Eucalyptus paniculata","Eucalyptus paniculata","","Species","D.Nicolle","Nelson Bay, NSW",32,44,0,152,10,45,53,11,"Alive","None evident","0","None evident","0","?","","","","","","None evident","Flowered","Flowered",1994,"0",-32.73333333,152.1791667,"Eucalyptus paniculata","NSW","Combination","Y",8180,1590,0.818,18.075,22.05,13.68333,1301,151,73,24.49396,421,243,295,337,7.766666,46.23016,341.2111,26,9.2,16.8,16.68333,15.65,0.159,1300.841,""
"9","R053/T17",-28.02,1.4,50,604,1994,"Eucalyptus amplifolia subsp. amplifolia","Eucalyptus amplifolia subsp. amplifolia","Exsertaria","x",10.09,10.47,7.79,8.43,2.81,4.3584,1.54,"Eucalyptus amplifolia subsp. amplifolia","Eucalyptus amplifolia subsp. amplifolia","","Subspecies","D.Nicolle","Nerriga, NSW",35,5,41,150,6,56,53,17,"Alive","Slight","1","Moderate","2","?","Scattered","Secondary & tertiary branches","3 - 6 months","None evident","","Slight","","",1994,"1",-35.09472222,150.1155556,"Eucalyptus amplifolia subsp. amplifolia","NSW","Combination","Y",6038,1366,0.6038,13.0625,18.53333,7.3,825,90,48,16.69861,241,166,209,186,11.425,48.0042,451.5132,25.2,1.4,23.8,18.26667,8.233334,0.1366,824.8634,""
"10","R053/T18",-27.67,1.5,50.1,604,1994,"Eucalyptus amplifolia subsp. amplifolia","Eucalyptus amplifolia subsp. amplifolia","Exsertaria","x",8.85,8.62,7.63,6.9,1.91,5.4911,1.17,"Eucalyptus amplifolia subsp. amplifolia","Eucalyptus amplifolia subsp. amplifolia","","Subspecies","D.Nicolle","Nerriga, NSW",35,5,41,150,6,56,53,18,"Alive","Slight","1","Moderate","2","?","None evident","","","","","None evident","Flowered","Flowered",1994,"0",-35.09472222,150.1155556,"Eucalyptus amplifolia subsp. amplifolia","NSW","Combination","Y",6038,1366,0.6038,13.0625,18.53333,7.3,825,90,48,16.69861,241,166,209,186,11.425,48.0042,451.5132,25.2,1.4,23.8,18.26667,8.233334,0.1366,824.8634,""
"11","R053/T19",-27.6,1.6,50.1,604,1994,"Eucalyptus amplifolia subsp. amplifolia","Eucalyptus amplifolia subsp. amplifolia","Exsertaria","x",8.58,8.15,7.52,7.53,1.95,3.0286,1.17,"Eucalyptus amplifolia subsp. amplifolia","Eucalyptus amplifolia subsp. amplifolia","","Subspecies","D.Nicolle","Nerriga, NSW",35,5,41,150,6,56,53,19,"Alive","None evident","0","Slight","1","?","None evident","","","","","None evident","Flowered","Flowered",1994,"0",-35.09472222,150.1155556,"Eucalyptus amplifolia subsp. amplifolia","NSW","Combination","Y",6038,1366,0.6038,13.0625,18.53333,7.3,825,90,48,16.69861,241,166,209,186,11.425,48.0042,451.5132,25.2,1.4,23.8,18.26667,8.233334,0.1366,824.8634,""
"12","R053/T25",-32.04,0.8,51,689,1994,"Eucalyptus dura","Eucalyptus dura","Adnataria","x",10.17,9.9,7.08,7.46,1.8,3.2572,1.2,"Eucalyptus dura","Eucalyptus dura","","Species","D.Nicolle","Barakula State Forest, Qld",26,21,9,150,52,5,53,25,"Alive","None evident","0","None evident","0","?","","","","","","None evident","","",1994,"0",-26.3525,150.8680556,"Eucalyptus dura","Qld","Combination","Y",3478,1874,0.3478,18.45833,23.88333,12.03333,652,95,24,45.71535,265,86,265,86,11.71667,47.62873,480.69,30,5.4,24.6,23.88333,12.03333,0.1874,651.8126,""
"13","R053/T26",-29.96,0.9,49.9,689,1994,"Eucalyptus dura","Eucalyptus dura","Adnataria","x",7.25,7.08,5.5,5.69,1.21,3.988,0.92,"Eucalyptus dura","Eucalyptus dura","","Species","D.Nicolle","Barakula State Forest, Qld",26,21,9,150,52,5,53,26,"Alive","None evident","0","None evident","0","?","","","","","","None evident","Flowered","Flowered",1994,"0",-26.3525,150.8680556,"Eucalyptus dura","Qld","Combination","Y",3478,1874,0.3478,18.45833,23.88333,12.03333,652,95,24,45.71535,265,86,265,86,11.71667,47.62873,480.69,30,5.4,24.6,23.88333,12.03333,0.1874,651.8126,""
"14","R053/T27",-27.14,1.3,49.9,689,1994,"Eucalyptus dura","Eucalyptus dura","Adnataria","x",8.8,8.53,6.14,6.58,1.43,3.2945,0.97,"Eucalyptus dura","Eucalyptus dura","","Species","D.Nicolle","Barakula State Forest, Qld",26,21,9,150,52,5,53,27,"Alive","None evident","0","None evident","0","?","","","","","","None evident","Flowered","Flowered",1994,"0",-26.3525,150.8680556,"Eucalyptus dura","Qld","Combination","Y",3478,1874,0.3478,18.45833,23.88333,12.03333,652,95,24,45.71535,265,86,265,86,11.71667,47.62873,480.69,30,5.4,24.6,23.88333,12.03333,0.1874,651.8126,""
"15","R053/T33",-30.06,1.3,48.8,683,1994,"Eucalyptus panda","Eucalyptus panda","Adnataria","x",10.47,10.07,7.84,7.69,2.11,1.5862,1.24,"Eucalyptus panda","Eucalyptus panda","","Species","D.Nicolle","Tara, Qld",27,7,57,150,29,0,53,33,"Alive","None evident","0","Slight","1","?","None evident","","","","","None evident","Flowered","Flowered",1994,"0",-27.1325,150.4833333,"Eucalyptus panda","Qld,NSW","Combination","Y",3159,1962,0.3159,18.8625,24.78333,11.96667,620,90,25,42.00947,245,89,245,89,12.875,48.04104,520.2802,31.5,4.7,26.8,24.78333,11.96667,0.1962,619.8038,""
"16","R053/T35",-28.01,1.5,49.3,683,1994,"Eucalyptus panda","Eucalyptus panda","Adnataria","x",8.45,8.16,5.86,6.05,1.25,2.1448,0.83,"Eucalyptus panda","Eucalyptus panda","","Species","D.Nicolle","Tara, Qld",27,7,57,150,29,0,53,35,"Alive","None evident","0","None evident","0","?","","","","","","None evident","Flowered","Flowered",1994,"0",-27.1325,150.4833333,"Eucalyptus panda","Qld,NSW","Combination","Y",3159,1962,0.3159,18.8625,24.78333,11.96667,620,90,25,42.00947,245,89,245,89,12.875,48.04104,520.2802,31.5,4.7,26.8,24.78333,11.96667,0.1962,619.8038,""
"17","R053/T36",-28.25,1.1,48.4,683,1994,"Eucalyptus panda","Eucalyptus panda","Adnataria","x",8.92,8.05,5.67,6.56,1.54,2.983,1.06,"Eucalyptus panda","Eucalyptus panda","","Species","D.Nicolle","Tara, Qld",27,7,57,150,29,0,53,36,"Alive","None evident","0","None evident","0","?","","","","","","None evident","Flowered","Flowered",1994,"0",-27.1325,150.4833333,"Eucalyptus panda","Qld,NSW","Combination","Y",3159,1962,0.3159,18.8625,24.78333,11.96667,620,90,25,42.00947,245,89,245,89,12.875,48.04104,520.2802,31.5,4.7,26.8,24.78333,11.96667,0.1962,619.8038,""
"18","R053/T13",-29.03,1.1,49,NA,NA,NA,NA,NA,NA,NA,NA,NA,NA,NA,NA,NA,NA,NA,NA,NA,NA,NA,NA,NA,NA,NA,NA,NA,NA,NA,NA,NA,NA,NA,NA,NA,NA,NA,NA,NA,NA,NA,NA,NA,NA,NA,NA,NA,NA,NA,NA,NA,NA,NA,NA,NA,NA,NA,NA,NA,NA,NA,NA,NA,NA,NA,NA,NA,NA,NA,NA,NA,NA,NA,NA,NA,NA
"19","R054/T14",-29.16,0.9,47.1,717,1994,"Eucalyptus siderophloia","Eucalyptus siderophloia","Adnataria","x",10.24,9.93,7.63,7.96,2.2,2.6327,1.54,"Eucalyptus siderophloia","Eucalyptus siderophloia","","Species","D.Nicolle","Gympie, Qld",26,8,8,152,34,50,54,14,"Alive","Slight","1","None evident","0","?","Scattered","Secondary & tertiary branches","3 - 6 months","None evident","","None evident","Flowered","Flowered",1994,"0",-26.13555556,152.5805556,"Eucalyptus siderophloia","Qld,NSW","Combination","Y",6024,1830,0.6024,20.4,24.9,15.01667,1103,163,37,47.39084,463,135,463,150,12.61667,53.68795,399.8181,30.8,7.3,23.5,24.9,15.95,0.183,1102.817,""
"20","R054/T15",-27.48,1.1,49.2,717,1994,"Eucalyptus siderophloia","Eucalyptus siderophloia","Adnataria","x",10.98,10.36,8.32,8.81,2.82,1.5404,1.94,"Eucalyptus siderophloia","Eucalyptus siderophloia","","Species","D.Nicolle","Gympie, Qld",26,8,8,152,34,50,54,15,"Alive","None evident","0","None evident","0","?","","","","","","None evident","Flowered","Flowered",1994,"0",-26.13555556,152.5805556,"Eucalyptus siderophloia","Qld,NSW","Combination","Y",6024,1830,0.6024,20.4,24.9,15.01667,1103,163,37,47.39084,463,135,463,150,12.61667,53.68795,399.8181,30.8,7.3,23.5,24.9,15.95,0.183,1102.817,""
"21","R054/T16",-30.16,1.1,49.5,697,1994,"Eucalyptus cambageana","Eucalyptus cambageana","Adnataria","x",10.89,10.51,9.42,8.22,3.06,4.831,2.32,"Eucalyptus cambageana","Eucalyptus cambageana","","Species","D.Nicolle","Moura, Qld",24,42,24,150,0,52,54,16,"Alive","None evident","0","None evident","0","?","","","","","","None evident","Flowered","Flowered",1994,"0",-24.70666667,150.0144444,"Eucalyptus cambageana","Qld","Combination","Y",3047,2080,0.3047,21.41667,26.63333,15.03333,634,91,23,48.30912,259,78,255,78,14.01667,52.30099,471.1463,33.5,6.7,26.8,26.01667,15.03333,0.208,633.792,""
"22","R054/T18",-28.7,1,49.7,697,1994,"Eucalyptus cambageana","Eucalyptus cambageana","Adnataria","x",9.98,9.03,7.71,7.91,2.26,4.3367,1.6,"Eucalyptus cambageana","Eucalyptus cambageana","","Species","D.Nicolle","Moura, Qld",24,42,24,150,0,52,54,18,"Alive","None evident","0","None evident","0","?","","","","","","None evident","Flowered","Flowered",1994,"0",-24.70666667,150.0144444,"Eucalyptus cambageana","Qld","Combination","Y",3047,2080,0.3047,21.41667,26.63333,15.03333,634,91,23,48.30912,259,78,255,78,14.01667,52.30099,471.1463,33.5,6.7,26.8,26.01667,15.03333,0.208,633.792,""
"23","R054/T19",-28.67,1.2,50.5,697,1994,"Eucalyptus cambageana","Eucalyptus cambageana","Adnataria","x",12.67,12.7,9.93,9.09,2.75,4.8725,2.05,"Eucalyptus cambageana","Eucalyptus cambageana","","Species","D.Nicolle","Moura, Qld",24,42,24,150,0,52,54,19,"Alive","None evident","0","None evident","0","?","","","","","","None evident","Flowered","Flowered",1994,"0",-24.70666667,150.0144444,"Eucalyptus cambageana","Qld","Combination","Y",3047,2080,0.3047,21.41667,26.63333,15.03333,634,91,23,48.30912,259,78,255,78,14.01667,52.30099,471.1463,33.5,6.7,26.8,26.01667,15.03333,0.208,633.792,""
"24","R054/T21",-25.06,1.3,46.2,698,1994,"Eucalyptus orgadophila","Eucalyptus orgadophila","Adnataria","x",8.93,8.68,6.54,6.25,1.43,2.0653,0.96,"Eucalyptus orgadophila","Eucalyptus orgadophila","","Species","D.Nicolle","Rolleston, Qld",24,34,37,148,54,2,54,21,"Alive","Slight","1","Slight","1","?","None evident","","","","","None evident","Flowered","Flowered",1994,"0",-24.57694444,148.9005556,"Eucalyptus orgadophila","Qld","Combination","Y",2951,2148,0.2951,21.19583,26.6,14.6,634,108,20,53.55069,278,71,278,71,14.375,52.27273,488.6319,33.6,6.1,27.5,26.6,14.6,0.2148,633.7852,""
"25","R054/T22",-28.95,1.4,47.8,698,1994,"Eucalyptus orgadophila","Eucalyptus orgadophila","Adnataria","x",12.68,11.85,8.97,10.04,3.09,2.1887,1.99,"Eucalyptus orgadophila","Eucalyptus orgadophila","","Species","D.Nicolle","Rolleston, Qld",24,34,37,148,54,2,54,22,"Alive","None evident","0","None evident","0","?","","","","","","None evident","Flowered","Flowered",1994,"0",-24.57694444,148.9005556,"Eucalyptus orgadophila","Qld","Combination","Y",2951,2148,0.2951,21.19583,26.6,14.6,634,108,20,53.55069,278,71,278,71,14.375,52.27273,488.6319,33.6,6.1,27.5,26.6,14.6,0.2148,633.7852,""
"26","R054/T23",-29.54,1,47.5,698,1994,"Eucalyptus orgadophila","Eucalyptus orgadophila","Adnataria","x",8.95,9,7.5,7.93,2.4,2.311,1.69,"Eucalyptus orgadophila","Eucalyptus orgadophila","","Species","D.Nicolle","Rolleston, Qld",24,34,37,148,54,2,54,23,"Alive","None evident","0","None evident","0","?","","","","","","None evident","Flowered","Flowered",1994,"0",-24.57694444,148.9005556,"Eucalyptus orgadophila","Qld","Combination","Y",2951,2148,0.2951,21.19583,26.6,14.6,634,108,20,53.55069,278,71,278,71,14.375,52.27273,488.6319,33.6,6.1,27.5,26.6,14.6,0.2148,633.7852,""
"27","R056/T08",-28.54,1.2,49.4,641,1994,"Eucalyptus parramattensis subsp. decadens","Eucalyptus parramattensis subsp. decadens","Exsertaria","x",7.11,7.06,5.64,5.77,1.21,2.8456,0.73,"Eucalyptus parramattensis subsp. decadens","Eucalyptus parramattensis subsp. decadens","","Subspecies","D.Nicolle","Williamstown, NSW",32,46,59,151,53,14,56,8,"Alive","Slight","1","Slight","1","?","None evident","","","","","Moderate","Flowered","Flowered",1994,"2",-32.78305556,151.8872222,"Eucalyptus parramattensis subsp. decadens","NSW","Combination","Y",7309,1593,0.7309,17.77917,22.45,12.6,1165,137,60,26.61643,368,197,300,266,9.808333,48.31691,396.8367,27.1,6.8,20.3,18.45,13.43333,0.1593,1164.841,"Threatened"
"28","R056/T09",-27.32,1.1,49.3,641,1994,"Eucalyptus parramattensis subsp. decadens","Eucalyptus parramattensis subsp. decadens","Exsertaria","x",9.1,9.36,7.85,7.14,2.04,2.4767,1.11,"Eucalyptus parramattensis subsp. decadens","Eucalyptus parramattensis subsp. decadens","","Subspecies","D.Nicolle","Williamstown, NSW",32,46,59,151,53,14,56,9,"Alive","Slight","1","Severe","3","??","None evident","","","","","Moderate","Flowered","Flowered",1994,"2",-32.78305556,151.8872222,"Eucalyptus parramattensis subsp. decadens","NSW","Combination","Y",7309,1593,0.7309,17.77917,22.45,12.6,1165,137,60,26.61643,368,197,300,266,9.808333,48.31691,396.8367,27.1,6.8,20.3,18.45,13.43333,0.1593,1164.841,"Threatened"
"29","R056/T10",-27.89,1.3,50.2,641,1994,"Eucalyptus parramattensis subsp. decadens","Eucalyptus parramattensis subsp. decadens","Exsertaria","x",10.46,10.34,8.73,8.79,2.33,2.4988,1.22,"Eucalyptus parramattensis subsp. decadens","Eucalyptus parramattensis subsp. decadens","","Subspecies","D.Nicolle","Williamstown, NSW",32,46,59,151,53,14,56,10,"Alive","Slight","1","Slight","1","?","None evident","","","","","None evident","Flowered","Flowered",1994,"0",-32.78305556,151.8872222,"Eucalyptus parramattensis subsp. decadens","NSW","Combination","Y",7309,1593,0.7309,17.77917,22.45,12.6,1165,137,60,26.61643,368,197,300,266,9.808333,48.31691,396.8367,27.1,6.8,20.3,18.45,13.43333,0.1593,1164.841,"Threatened"
"30","R058/T01",-27.38,0.9,49.9,NA,NA,NA,NA,NA,NA,NA,NA,NA,NA,NA,NA,NA,NA,NA,NA,NA,NA,NA,NA,NA,NA,NA,NA,NA,NA,NA,NA,NA,NA,NA,NA,NA,NA,NA,NA,NA,NA,NA,NA,NA,NA,NA,NA,NA,NA,NA,NA,NA,NA,NA,NA,NA,NA,NA,NA,NA,NA,NA,NA,NA,NA,NA,NA,NA,NA,NA,NA,NA,NA,NA,NA,NA,NA
"31","R058/T03",-26.55,0.8,51.2,NA,NA,NA,NA,NA,NA,NA,NA,NA,NA,NA,NA,NA,NA,NA,NA,NA,NA,NA,NA,NA,NA,NA,NA,NA,NA,NA,NA,NA,NA,NA,NA,NA,NA,NA,NA,NA,NA,NA,NA,NA,NA,NA,NA,NA,NA,NA,NA,NA,NA,NA,NA,NA,NA,NA,NA,NA,NA,NA,NA,NA,NA,NA,NA,NA,NA,NA,NA,NA,NA,NA,NA,NA,NA
"32","R058/T04",-29.19,0.8,51.4,716,1994,"Eucalyptus hallii","Eucalyptus hallii","Exsertaria","x",11.28,10.36,9.32,8.1,2.6,4.6985,1.56,"Eucalyptus hallii","Eucalyptus hallii","","Species","D.Nicolle","Goodwood, Qld",25,10,12,152,22,20,58,4,"Alive","None evident","0","Slight","1","?","None evident","","","","","None evident","","",1994,"0",-25.17,152.3722222,"Eucalyptus hallii","Qld","Combination","Y",5469,1835,0.5469,21.225,25.46667,16.06667,1004,168,30,52.69872,433,107,433,110,10.7,50.7109,380.7081,30.4,9.3,21.1,25.46667,17.05,0.1835,1003.817,""
"33","R058/T05",-29.07,0.9,50.1,716,1994,"Eucalyptus hallii","Eucalyptus hallii","Exsertaria","x",9.32,8.6,7.73,7.08,2.09,3.0109,1.38,"Eucalyptus hallii","Eucalyptus hallii","","Species","D.Nicolle","Goodwood, Qld",25,10,12,152,22,20,58,5,"Alive","None evident","0","Slight","1","?","None evident","","","","","None evident","Flowered","Flowered",1994,"0",-25.17,152.3722222,"Eucalyptus hallii","Qld","Combination","Y",5469,1835,0.5469,21.225,25.46667,16.06667,1004,168,30,52.69872,433,107,433,110,10.7,50.7109,380.7081,30.4,9.3,21.1,25.46667,17.05,0.1835,1003.817,""
"34","R058/T06",-29.38,0.8,49.8,716,1994,"Eucalyptus hallii","Eucalyptus hallii","Exsertaria","x",7.98,7.8,6.82,6.34,1.8,4.5489,1.15,"Eucalyptus hallii","Eucalyptus hallii","","Species","D.Nicolle","Goodwood, Qld",25,10,12,152,22,20,58,6,"Alive","None evident","0","Slight","1","?","None evident","","","","","None evident","Flowered","Flowered",1994,"0",-25.17,152.3722222,"Eucalyptus hallii","Qld","Combination","Y",5469,1835,0.5469,21.225,25.46667,16.06667,1004,168,30,52.69872,433,107,433,110,10.7,50.7109,380.7081,30.4,9.3,21.1,25.46667,17.05,0.1835,1003.817,""
"35","R058/T12",-28.43,1.2,50.1,646,1994,"Eucalyptus ancophila","Eucalyptus ancophila","Adnataria","x",9.71,8.85,7.26,6.94,1.9,2.2894,1.24,"Eucalyptus ancophila","Eucalyptus ancophila","","Species","D.Nicolle","Eungai Creek, NSW",30,48,59,152,51,12,58,12,"Alive","None evident","0","Slight","1","?","None evident","","","","","None evident","Flowered","Flowered",1994,"0",-30.81638889,152.8533333,"Eucalyptus ancophila","NSW","Combination","Y",8463,1624,0.8463,18.475,22.85,13.5,1375,192,40,44.30709,533,140,474,187,10.13333,49.19094,377.8859,27.7,7.1,20.6,22.7,14.31667,0.1624,1374.838,""
"36","R058/T14",-27.58,0.9,50.2,646,1994,"Eucalyptus ancophila","Eucalyptus ancophila","Adnataria","x",10.85,11.33,8.84,7.98,2.51,4.036,1.57,"Eucalyptus ancophila","Eucalyptus ancophila","","Species","D.Nicolle","Eungai Creek, NSW",30,48,59,152,51,12,58,14,"Alive","None evident","0","Slight","1","?","None evident","","","","","None evident","Flowered","Flowered",1994,"0",-30.81638889,152.8533333,"Eucalyptus ancophila","NSW","Combination","Y",8463,1624,0.8463,18.475,22.85,13.5,1375,192,40,44.30709,533,140,474,187,10.13333,49.19094,377.8859,27.7,7.1,20.6,22.7,14.31667,0.1624,1374.838,""
"37","R058/T15",-26.96,1.2,49.7,646,1994,"Eucalyptus ancophila","Eucalyptus ancophila","Adnataria","x",10.71,10.63,7.99,8.13,2.23,3.4718,1.62,"Eucalyptus ancophila","Eucalyptus ancophila","","Species","D.Nicolle","Eungai Creek, NSW",30,48,59,152,51,12,58,15,"Alive","Slight","1","None evident","0","?","None evident","","","","","None evident","Flowered","Flowered",1994,"0",-30.81638889,152.8533333,"Eucalyptus ancophila","NSW","Combination","Y",8463,1624,0.8463,18.475,22.85,13.5,1375,192,40,44.30709,533,140,474,187,10.13333,49.19094,377.8859,27.7,7.1,20.6,22.7,14.31667,0.1624,1374.838,""
"38","R059/T12",-29.35,1.1,48.7,679,1994,"Eucalyptus populnea subsp. populnea","Eucalyptus populnea subsp. populnea","Adnataria","x",8.6,8.92,6.82,6.42,1.65,4.2281,1.08,"Eucalyptus populnea subsp. populnea","Eucalyptus populnea","","Species","D.Nicolle","Kogan, Qld",27,7,0,150,41,36,59,12,"Alive","Slight","1","None evident","0","?","None evident","","","","","None evident","","",1994,"0",-27.11666667,150.6933333,"Eucalyptus populnea subsp. populnea","Qld","Combination","Y",3167,1944,0.3167,19.06667,24.93333,12.21667,616,89,24,41.21154,242,86,242,86,12.86667,48.37093,516.4183,31.6,5,26.6,24.93333,12.21667,0.1944,615.8056,""
"39","R059/T13",-29.05,1.1,49.9,679,1994,"Eucalyptus populnea subsp. populnea","Eucalyptus populnea subsp. populnea","Adnataria","x",9.07,8.71,6.3,6.8,1.72,4.2361,1.18,"Eucalyptus populnea subsp. populnea","Eucalyptus populnea","","Species","D.Nicolle","Kogan, Qld",27,7,0,150,41,36,59,13,"Alive","Moderate","2","None evident","0","??","Extensive","Tertiary branches","3 - 6 months","None evident","","None evident","","",1994,"0",-27.11666667,150.6933333,"Eucalyptus populnea subsp. populnea","Qld","Combination","Y",3167,1944,0.3167,19.06667,24.93333,12.21667,616,89,24,41.21154,242,86,242,86,12.86667,48.37093,516.4183,31.6,5,26.6,24.93333,12.21667,0.1944,615.8056,""
"40","R059/T15",-28.14,1,49.1,679,1994,"Eucalyptus populnea subsp. populnea","Eucalyptus populnea subsp. populnea","Adnataria","x",8.09,8.94,6.32,6.91,1.69,4.971,1.17,"Eucalyptus populnea subsp. populnea","Eucalyptus populnea","","Species","D.Nicolle","Kogan, Qld",27,7,0,150,41,36,59,15,"Alive","Slight","1","None evident","0","?","None evident","","","","","None evident","Flowered","Flowered",1994,"0",-27.11666667,150.6933333,"Eucalyptus populnea subsp. populnea","Qld","Combination","Y",3167,1944,0.3167,19.06667,24.93333,12.21667,616,89,24,41.21154,242,86,242,86,12.86667,48.37093,516.4183,31.6,5,26.6,24.93333,12.21667,0.1944,615.8056,""
"41","R060/T01",-27.17,1.2,50.6,728,1994,"Eucalyptus vicina","Eucalyptus vicina","Exsertaria","x",10.71,9.37,7.2,8.48,2.49,3.2064,1.55,"Eucalyptus vicina","Eucalyptus vicina","","Species","D.Nicolle","Hermidale, NSW",31,33,4,146,41,29,60,1,"Alive","None evident","0","None evident","0","?","","","","","","None evident","Flowered","Flowered",1994,"0",-31.55111111,146.6913889,"Eucalyptus vicina","NSW","Lignotuber","Y",2139,2112,0.2139,18.6875,26.16667,10.95,452,61,25,26.19689,151,83,151,83,13.45833,45.01115,615.272,33.9,4,29.9,26.16667,10.95,0.2112,451.7888,""
"42","R060/T02",-29.23,1,48.5,728,1994,"Eucalyptus vicina","Eucalyptus vicina","Exsertaria","x",7.51,7.61,6.25,6.24,1.57,2.7451,1.12,"Eucalyptus vicina","Eucalyptus vicina","","Species","D.Nicolle","Hermidale, NSW",31,33,4,146,41,29,60,2,"Alive","None evident","0","None evident","0","?","","","","","","None evident","Flowered","Flowered",1994,"0",-31.55111111,146.6913889,"Eucalyptus vicina","NSW","Lignotuber","Y",2139,2112,0.2139,18.6875,26.16667,10.95,452,61,25,26.19689,151,83,151,83,13.45833,45.01115,615.272,33.9,4,29.9,26.16667,10.95,0.2112,451.7888,""
"43","R060/T03",-27.48,1.5,51.4,728,1994,"Eucalyptus vicina","Eucalyptus vicina","Exsertaria","x",9.43,9.98,7.42,6.55,1.93,2.5818,1.18,"Eucalyptus vicina","Eucalyptus vicina","","Species","D.Nicolle","Hermidale, NSW",31,33,4,146,41,29,60,3,"Alive","None evident","0","None evident","0","?","","","","","","None evident","Flowered","Flowered",1994,"0",-31.55111111,146.6913889,"Eucalyptus vicina","NSW","Lignotuber","Y",2139,2112,0.2139,18.6875,26.16667,10.95,452,61,25,26.19689,151,83,151,83,13.45833,45.01115,615.272,33.9,4,29.9,26.16667,10.95,0.2112,451.7888,""
"44","R060/T29",-26.35,1.9,52.4,667,1994,"Eucalyptus interstans","Eucalyptus interstans","Exsertaria","x",7.9,8.12,5.92,6.54,1.57,1.857,0.89,"Eucalyptus interstans","Eucalyptus interstans","","Species","D.Nicolle","Drake, NSW",28,55,44,152,23,38,60,29,"Alive","Slight","1","Moderate","2","?","None evident","","","","","Moderate","Flowered","Flowered",1994,"2",-28.92888889,152.3938889,"Eucalyptus interstans","NSW,Qld","Combination","Y",7162,1604,0.7162,16.77917,21.48333,11.38333,1149,166,35,49.41257,467,120,461,126,10.44167,48.79284,408.7256,27,5.6,21.4,21.2,12.21667,0.1604,1148.84,""
"45","R060/T30",-26.49,1.7,50.2,667,1994,"Eucalyptus interstans","Eucalyptus interstans","Exsertaria","x",10.51,10.8,9.3,8.71,3.1,2.0138,1.57,"Eucalyptus interstans","Eucalyptus interstans","","Species","D.Nicolle","Drake, NSW",28,55,44,152,23,38,60,30,"Alive","Moderate","2","Severe","3","?","Extensive","Tertiary branches","3 - 6 months","None evident","","Moderate","Flowered","Flowered",1994,"2",-28.92888889,152.3938889,"Eucalyptus interstans","NSW,Qld","Combination","Y",7162,1604,0.7162,16.77917,21.48333,11.38333,1149,166,35,49.41257,467,120,461,126,10.44167,48.79284,408.7256,27,5.6,21.4,21.2,12.21667,0.1604,1148.84,""
"46","R060/T32",-28.17,1.9,50.2,667,1994,"Eucalyptus interstans","Eucalyptus interstans","Exsertaria","x",8.6,8.63,7.04,6.8,1.91,1.568,0.97,"Eucalyptus interstans","Eucalyptus interstans","","Species","D.Nicolle","Drake, NSW",28,55,44,152,23,38,60,32,"Alive","None evident","0","Moderate","2","??","None evident","","","","","Moderate","Flowered","Flowered",1994,"2",-28.92888889,152.3938889,"Eucalyptus interstans","NSW,Qld","Combination","Y",7162,1604,0.7162,16.77917,21.48333,11.38333,1149,166,35,49.41257,467,120,461,126,10.44167,48.79284,408.7256,27,5.6,21.4,21.2,12.21667,0.1604,1148.84,""
"47","R060/T33",-28.99,1.2,49.5,NA,NA,NA,NA,NA,NA,NA,NA,NA,NA,NA,NA,NA,NA,NA,NA,NA,NA,NA,NA,NA,NA,NA,NA,NA,NA,NA,NA,NA,NA,NA,NA,NA,NA,NA,NA,NA,NA,NA,NA,NA,NA,NA,NA,NA,NA,NA,NA,NA,NA,NA,NA,NA,NA,NA,NA,NA,NA,NA,NA,NA,NA,NA,NA,NA,NA,NA,NA,NA,NA,NA,NA,NA,NA
"48","R060/T34",-29.47,0.9,46.7,NA,NA,NA,NA,NA,NA,NA,NA,NA,NA,NA,NA,NA,NA,NA,NA,NA,NA,NA,NA,NA,NA,NA,NA,NA,NA,NA,NA,NA,NA,NA,NA,NA,NA,NA,NA,NA,NA,NA,NA,NA,NA,NA,NA,NA,NA,NA,NA,NA,NA,NA,NA,NA,NA,NA,NA,NA,NA,NA,NA,NA,NA,NA,NA,NA,NA,NA,NA,NA,NA,NA,NA,NA,NA
"49","R060/T36",-29.34,1.1,47.9,NA,NA,NA,NA,NA,NA,NA,NA,NA,NA,NA,NA,NA,NA,NA,NA,NA,NA,NA,NA,NA,NA,NA,NA,NA,NA,NA,NA,NA,NA,NA,NA,NA,NA,NA,NA,NA,NA,NA,NA,NA,NA,NA,NA,NA,NA,NA,NA,NA,NA,NA,NA,NA,NA,NA,NA,NA,NA,NA,NA,NA,NA,NA,NA,NA,NA,NA,NA,NA,NA,NA,NA,NA,NA
"50","R061/T13",-27.08,1.2,48.4,645,1994,"Eucalyptus fusiformis","Eucalyptus fusiformis","Adnataria","x",12.71,11.91,9.54,10.03,2.8,2.68,1.77,"Eucalyptus fusiformis","Eucalyptus fusiformis","","Species","D.Nicolle","Macksville, NSW",30,54,9,152,51,12,61,13,"Alive","Slight","1","Slight","1","?","None evident","","","","","None evident","Flowered","Flowered",1994,"0",-30.9025,152.8533333,"Eucalyptus fusiformis","NSW,Qld","Combination","Y",8575,1608,0.8575,18.2875,22.63333,13.4,1379,187,39,42.56675,526,144,472,194,9.875,49.375,373.1629,27.3,7.3,20,22.48333,14.18333,0.1608,1378.839,""
"51","R061/T14",-27.03,1.4,49.7,645,1994,"Eucalyptus fusiformis","Eucalyptus fusiformis","Adnataria","x",11.7,11.17,8.88,8.26,3.12,2.2022,1.96,"Eucalyptus fusiformis","Eucalyptus fusiformis","","Species","D.Nicolle","Macksville, NSW",30,54,9,152,51,12,61,14,"Alive","Slight","1","Slight","1","?","Moderate","Tertiary branches","3 - 6 months","None evident","","None evident","Flowered","Flowered",1994,"0",-30.9025,152.8533333,"Eucalyptus fusiformis","NSW,Qld","Combination","Y",8575,1608,0.8575,18.2875,22.63333,13.4,1379,187,39,42.56675,526,144,472,194,9.875,49.375,373.1629,27.3,7.3,20,22.48333,14.18333,0.1608,1378.839,""
"52","R061/T15",-27.65,1.4,50.1,645,1994,"Eucalyptus fusiformis","Eucalyptus fusiformis","Adnataria","x",7.97,8.3,6.55,6.42,1.63,2.8505,1.17,"Eucalyptus fusiformis","Eucalyptus fusiformis","","Species","D.Nicolle","Macksville, NSW",30,54,9,152,51,12,61,15,"Alive","Moderate","2","Slight","1","?","Extensive","Tertiary branches","3 - 6 months","None evident","","None evident","Flowered","Flowered",1994,"0",-30.9025,152.8533333,"Eucalyptus fusiformis","NSW,Qld","Combination","Y",8575,1608,0.8575,18.2875,22.63333,13.4,1379,187,39,42.56675,526,144,472,194,9.875,49.375,373.1629,27.3,7.3,20,22.48333,14.18333,0.1608,1378.839,""
"53","R061/T29",-29.74,1.3,49,643,1994,"Eucalyptus paniculata","Eucalyptus fergusonii subsp. fergusonii","Adnataria","x",10.31,9.85,7.78,7.57,2.68,2.8421,1.73,"Eucalyptus fergusonii subsp. fergusonii","Eucalyptus paniculata","","Species","D.Nicolle","Bulahdelah, NSW",32,14,55,152,11,30,61,29,"Alive","None evident","0","None evident","0","?","","","","","","None evident","Flowered","Flowered",1994,"0",-32.24861111,152.1916667,NA,"NSW","Combination","Y",7130,1570,0.713,17.13333,21.71667,12.1,1120,152,44,35.53238,412,149,356,188,9.983333,49.42244,387.4411,26.8,6.6,20.2,21.5,12.81667,0.157,1119.843,""
"54","R061/T30",-28.63,1.7,50.3,643,1994,"Eucalyptus paniculata","Eucalyptus fergusonii subsp. fergusonii","Adnataria","x",10.62,11.52,7.99,9.13,2.04,2.7538,1.31,"Eucalyptus fergusonii subsp. fergusonii","Eucalyptus paniculata","","Species","D.Nicolle","Bulahdelah, NSW",32,14,55,152,11,30,61,30,"Alive","None evident","0","Slight","1","?","None evident","","","","","None evident","Flowered","Flowered",1994,"0",-32.24861111,152.1916667,NA,"NSW","Combination","Y",7130,1570,0.713,17.13333,21.71667,12.1,1120,152,44,35.53238,412,149,356,188,9.983333,49.42244,387.4411,26.8,6.6,20.2,21.5,12.81667,0.157,1119.843,""
"55","R061/T31",-27.92,1.2,51.1,643,1994,"Eucalyptus paniculata","Eucalyptus fergusonii subsp. fergusonii","Adnataria","x",14.38,13.34,10.57,11.12,4.13,3.7363,2.78,"Eucalyptus fergusonii subsp. fergusonii","Eucalyptus paniculata","","Species","D.Nicolle","Bulahdelah, NSW",32,14,55,152,11,30,61,31,"Alive","None evident","0","None evident","0","?","","","","","","None evident","Flowered","Flowered",1994,"0",-32.24861111,152.1916667,NA,"NSW","Combination","Y",7130,1570,0.713,17.13333,21.71667,12.1,1120,152,44,35.53238,412,149,356,188,9.983333,49.42244,387.4411,26.8,6.6,20.2,21.5,12.81667,0.157,1119.843,""
"56","R070/T13",-29.44,0.7,48.9,NA,NA,NA,NA,NA,NA,NA,NA,NA,NA,NA,NA,NA,NA,NA,NA,NA,NA,NA,NA,NA,NA,NA,NA,NA,NA,NA,NA,NA,NA,NA,NA,NA,NA,NA,NA,NA,NA,NA,NA,NA,NA,NA,NA,NA,NA,NA,NA,NA,NA,NA,NA,NA,NA,NA,NA,NA,NA,NA,NA,NA,NA,NA,NA,NA,NA,NA,NA,NA,NA,NA,NA,NA,NA
"57","R070/T15",-28.89,0.7,50.7,NA,NA,NA,NA,NA,NA,NA,NA,NA,NA,NA,NA,NA,NA,NA,NA,NA,NA,NA,NA,NA,NA,NA,NA,NA,NA,NA,NA,NA,NA,NA,NA,NA,NA,NA,NA,NA,NA,NA,NA,NA,NA,NA,NA,NA,NA,NA,NA,NA,NA,NA,NA,NA,NA,NA,NA,NA,NA,NA,NA,NA,NA,NA,NA,NA,NA,NA,NA,NA,NA,NA,NA,NA,NA
"58","R062/T25",-28.45,1.4,48,NA,NA,NA,NA,NA,NA,NA,NA,NA,NA,NA,NA,NA,NA,NA,NA,NA,NA,NA,NA,NA,NA,NA,NA,NA,NA,NA,NA,NA,NA,NA,NA,NA,NA,NA,NA,NA,NA,NA,NA,NA,NA,NA,NA,NA,NA,NA,NA,NA,NA,NA,NA,NA,NA,NA,NA,NA,NA,NA,NA,NA,NA,NA,NA,NA,NA,NA,NA,NA,NA,NA,NA,NA,NA
"59","R062/T26",-28.2,1.5,49.1,NA,NA,NA,NA,NA,NA,NA,NA,NA,NA,NA,NA,NA,NA,NA,NA,NA,NA,NA,NA,NA,NA,NA,NA,NA,NA,NA,NA,NA,NA,NA,NA,NA,NA,NA,NA,NA,NA,NA,NA,NA,NA,NA,NA,NA,NA,NA,NA,NA,NA,NA,NA,NA,NA,NA,NA,NA,NA,NA,NA,NA,NA,NA,NA,NA,NA,NA,NA,NA,NA,NA,NA,NA,NA
"60","R062/T27",-28.27,1.2,47.2,NA,NA,NA,NA,NA,NA,NA,NA,NA,NA,NA,NA,NA,NA,NA,NA,NA,NA,NA,NA,NA,NA,NA,NA,NA,NA,NA,NA,NA,NA,NA,NA,NA,NA,NA,NA,NA,NA,NA,NA,NA,NA,NA,NA,NA,NA,NA,NA,NA,NA,NA,NA,NA,NA,NA,NA,NA,NA,NA,NA,NA,NA,NA,NA,NA,NA,NA,NA,NA,NA,NA,NA,NA,NA
"61","R063/T17",-30.06,0.9,48.3,1178,1995,"Eucalyptus victrix","Eucalyptus victrix","Adnataria","x",9.08,8.77,7.05,6.6,1.72,4.3876,1.17,"Eucalyptus victrix","Eucalyptus victrix","","Species","D.Nicolle","Lake Macleod,  WA",24,1,4,113,29,17,63,17,"Alive","Slight","1","None evident","0","?","None evident","","","","","None evident","Flowered","Flowered",1995,"0",-24.01777778,113.4880556,"Eucalyptus victrix","WA,NT,Qld?","Combination","Y",847,2866,0.0847,23.37083244,28.79999924,17.58333397,243,57,2,85.77166748,139,11,60,119,14.1916666,53.55346298,449.5626831,36.09999847,9.600000381,26.49999809,18.66666603,24.71666718,0.2866,242.7134,""
"62","R063/T19",-29.04,1.1,49.1,1178,1995,"Eucalyptus victrix","Eucalyptus victrix","Adnataria","x",8.01,7.29,6.16,5.64,1.36,5.2623,0.99,"Eucalyptus victrix","Eucalyptus victrix","","Species","D.Nicolle","Lake Macleod,  WA",24,1,4,113,29,17,63,19,"Alive","None evident","0","None evident","0","?","","","","","","None evident","Flowered","Flowered",1995,"0",-24.01777778,113.4880556,"Eucalyptus victrix","WA,NT,Qld?","Combination","Y",847,2866,0.0847,23.37083244,28.79999924,17.58333397,243,57,2,85.77166748,139,11,60,119,14.1916666,53.55346298,449.5626831,36.09999847,9.600000381,26.49999809,18.66666603,24.71666718,0.2866,242.7134,""
"63","R063/T20",-28.93,0.9,51.5,NA,NA,NA,NA,NA,NA,NA,NA,NA,NA,NA,NA,NA,NA,NA,NA,NA,NA,NA,NA,NA,NA,NA,NA,NA,NA,NA,NA,NA,NA,NA,NA,NA,NA,NA,NA,NA,NA,NA,NA,NA,NA,NA,NA,NA,NA,NA,NA,NA,NA,NA,NA,NA,NA,NA,NA,NA,NA,NA,NA,NA,NA,NA,NA,NA,NA,NA,NA,NA,NA,NA,NA,NA,NA
"64","R066/T19",-28.44,0.8,47.1,1207,1995,"Eucalyptus normantonensis","Eucalyptus normantonensis","Adnataria","x",7.69,7.46,5.57,5.4,1.05,3.0397,0.76,"Eucalyptus normantonensis","Eucalyptus normantonensis","","Species","D.Nicolle","MacDonnell Ranges, NT",23,38,9,132,34,2,66,19,"Alive","None evident","0","None evident","0","?","","","","","","None evident","","",1995,"0",-23.63583333,132.5672222,"Eucalyptus normantonensis","NT,Qld,WA","Lignotuber","Y",1146,2825,0.1146,21.89166641,28.63333321,13.96666622,324,50,9,54.86532593,142,31,138,38,14.76666641,46.87830734,601.4030151,36.59999847,5.099999905,31.49999809,27.96666718,16,0.2825,323.7175,""
"65","R066/T20",-28.31,0.8,50.5,1207,1995,"Eucalyptus normantonensis","Eucalyptus normantonensis","Adnataria","x",8.47,8.57,6.64,6.72,1.78,3.3977,1.14,"Eucalyptus normantonensis","Eucalyptus normantonensis","","Species","D.Nicolle","MacDonnell Ranges, NT",23,38,9,132,34,2,66,20,"Alive","None evident","0","None evident","0","?","","","","","","None evident","Flowered","Flowered",1995,"0",-23.63583333,132.5672222,"Eucalyptus normantonensis","NT,Qld,WA","Lignotuber","Y",1146,2825,0.1146,21.89166641,28.63333321,13.96666622,324,50,9,54.86532593,142,31,138,38,14.76666641,46.87830734,601.4030151,36.59999847,5.099999905,31.49999809,27.96666718,16,0.2825,323.7175,""
"66","R066/T21",-27.62,1.3,48.7,1207,1995,"Eucalyptus normantonensis","Eucalyptus normantonensis","Adnataria","x",6.32,6.62,5.26,4.76,0.95,2.756,0.68,"Eucalyptus normantonensis","Eucalyptus normantonensis","","Species","D.Nicolle","MacDonnell Ranges, NT",23,38,9,132,34,2,66,21,"Alive","None evident","0","None evident","0","?","","","","","","None evident","Flowered","Flowered",1995,"0",-23.63583333,132.5672222,"Eucalyptus normantonensis","NT,Qld,WA","Lignotuber","Y",1146,2825,0.1146,21.89166641,28.63333321,13.96666622,324,50,9,54.86532593,142,31,138,38,14.76666641,46.87830734,601.4030151,36.59999847,5.099999905,31.49999809,27.96666718,16,0.2825,323.7175,""
"67","R066/T25",-30.26,1.4,48.4,1206,1995,"Eucalyptus camaldulensis subsp. arida","Eucalyptus camaldulensis subsp. arida","Exsertaria","x",7.21,7.08,6.04,6.19,1.41,3.3364,0.8,"Eucalyptus camaldulensis subsp. arida","Eucalyptus camaldulensis subsp. arida","","Subspecies","D.Nicolle","MacDonnell Ranges, NT",23,12,15,131,33,37,66,25,"Alive","Severe","3","Severe","3","?","Moderate","Trunk + primary, secondary & tertiary branches","3 - 6 months","Slight","","None evident","","",1995,"0",-23.20416667,131.5602778,"Eucalyptus camaldulensis subsp. arida","WA,NT,Qld,SA,NSW","Combination","Y",1260,3031,0.126,23.72083282,30.31666565,15.6833334,382,75,5,66.77604675,186,31,179,38,15.54166698,48.56770706,601.673645,38.5,6.5,32,29.66666603,17.76666641,0.3031,381.6969,""
"68","R066/T26",-28.84,1.7,49.8,1206,1995,"Eucalyptus camaldulensis subsp. arida","Eucalyptus camaldulensis subsp. arida","Exsertaria","x",8.47,8.77,6.83,7.09,1.7,3.9761,0.9,"Eucalyptus camaldulensis subsp. arida","Eucalyptus camaldulensis subsp. arida","","Subspecies","D.Nicolle","MacDonnell Ranges, NT",23,12,15,131,33,37,66,26,"Alive","Severe","3","Moderate","2","?","Scattered","Secondary & tertiary branches","3 - 6 months","Slight","","None evident","","",1995,"0",-23.20416667,131.5602778,"Eucalyptus camaldulensis subsp. arida","WA,NT,Qld,SA,NSW","Combination","Y",1260,3031,0.126,23.72083282,30.31666565,15.6833334,382,75,5,66.77604675,186,31,179,38,15.54166698,48.56770706,601.673645,38.5,6.5,32,29.66666603,17.76666641,0.3031,381.6969,""
"69","R066/T27",-28.83,1.3,48.5,1206,1995,"Eucalyptus camaldulensis subsp. arida","Eucalyptus camaldulensis subsp. arida","Exsertaria","x",7.04,6.79,5.62,5.42,1.35,4.2273,0.77,"Eucalyptus camaldulensis subsp. arida","Eucalyptus camaldulensis subsp. arida","","Subspecies","D.Nicolle","MacDonnell Ranges, NT",23,12,15,131,33,37,66,27,"Alive","Severe","3","Severe","3","?","Scattered","Primary, secondary & tertiary branches","3 - 6 months","Slight","","None evident","","",1995,"0",-23.20416667,131.5602778,"Eucalyptus camaldulensis subsp. arida","WA,NT,Qld,SA,NSW","Combination","Y",1260,3031,0.126,23.72083282,30.31666565,15.6833334,382,75,5,66.77604675,186,31,179,38,15.54166698,48.56770706,601.673645,38.5,6.5,32,29.66666603,17.76666641,0.3031,381.6969,""
"70","R066/T29",-28.51,1.1,50,980,1995,"Eucalyptus largiflorens","Eucalyptus largiflorens","Adnataria","x",11.35,10.87,9.1,8.73,3.35,2.5327,2.2,"Eucalyptus largiflorens","Eucalyptus largiflorens","","Species","D.Nicolle","Wentworth, NSW",34,0,48,141,55,33,66,29,"Alive","None evident","0","None evident","0","?","","","","","","None evident","","",1995,"0",-34.01333333,141.9258333,"Eucalyptus largiflorens","Vic,NSW,SA,Qld","Combination","Y",1374,2109,0.1374,17.65833,24.38333,10.98333,290,31,16,17.01355,90,59,67,78,14.06667,49.35673,543.3266,33.1,4.6,28.5,14.51667,21.45,0.2109,289.7891,""
"71","R066/T32",-27.94,1,51,980,1995,"Eucalyptus largiflorens","Eucalyptus largiflorens","Adnataria","x",11.96,9.45,7.25,9.41,2.61,2.9227,1.91,"Eucalyptus largiflorens","Eucalyptus largiflorens","","Species","D.Nicolle","Wentworth, NSW",34,0,48,141,55,33,66,32,"Alive","None evident","0","None evident","0","?","","","","","","None evident","Flowered","Flowered",1995,"0",-34.01333333,141.9258333,"Eucalyptus largiflorens","Vic,NSW,SA,Qld","Combination","Y",1374,2109,0.1374,17.65833,24.38333,10.98333,290,31,16,17.01355,90,59,67,78,14.06667,49.35673,543.3266,33.1,4.6,28.5,14.51667,21.45,0.2109,289.7891,""
"72","R066/T33",-29.8,1,50.3,980,1995,"Eucalyptus largiflorens","Eucalyptus largiflorens","Adnataria","x",9.04,8.86,7.13,7.2,2.09,1.4893,1.39,"Eucalyptus largiflorens","Eucalyptus largiflorens","","Species","D.Nicolle","Wentworth, NSW",34,0,48,141,55,33,66,33,"Alive","None evident","0","None evident","0","?","","","","","","None evident","Flowered","Flowered",1995,"0",-34.01333333,141.9258333,"Eucalyptus largiflorens","Vic,NSW,SA,Qld","Combination","Y",1374,2109,0.1374,17.65833,24.38333,10.98333,290,31,16,17.01355,90,59,67,78,14.06667,49.35673,543.3266,33.1,4.6,28.5,14.51667,21.45,0.2109,289.7891,""
"73","R066/T34",-28.82,0.9,49.8,822,1995,"Eucalyptus odorata","Eucalyptus odorata","Adnataria","x",10.57,10.79,9.06,7.69,2.76,3.0553,2.01,"Eucalyptus odorata","Eucalyptus odorata","","Species","D.Nicolle","Kangaroo Island, SA",35,41,35,137,31,52,66,34,"Alive","None evident","0","None evident","0","?","","","","","","None evident","Flowered","Flowered",1995,"0",-35.69305556,137.5311111,"Eucalyptus odorata","SA,Vic","Combination","Y",2834,1686,0.2834,15.97083,20.23333,11.88333,478,77,11,58.495,217,45,45,217,9.241667,50.50091,344.3139,26.2,7.9,18.3,11.88333,20.23333,0.1686,477.8314,""
"74","R066/T36",-28.33,1.3,49,822,1995,"Eucalyptus odorata","Eucalyptus odorata","Adnataria","x",10.22,10.14,8.01,8.14,2.49,1.9025,1.8,"Eucalyptus odorata","Eucalyptus odorata","","Species","D.Nicolle","Kangaroo Island, SA",35,41,35,137,31,52,66,36,"Alive","None evident","0","None evident","0","?","","","","","","None evident","Flowered","Flowered",1995,"0",-35.69305556,137.5311111,"Eucalyptus odorata","SA,Vic","Combination","Y",2834,1686,0.2834,15.97083,20.23333,11.88333,478,77,11,58.495,217,45,45,217,9.241667,50.50091,344.3139,26.2,7.9,18.3,11.88333,20.23333,0.1686,477.8314,""
"75","R066/T37",-28.53,0.9,51.1,822,1995,"Eucalyptus odorata","Eucalyptus odorata","Adnataria","x",8.33,9.1,7.97,6.88,2.05,2.6207,1.53,"Eucalyptus odorata","Eucalyptus odorata","","Species","D.Nicolle","Kangaroo Island, SA",35,41,35,137,31,52,66,37,"Alive","None evident","0","None evident","0","?","","","","","","None evident","Flowered","Flowered",1995,"0",-35.69305556,137.5311111,"Eucalyptus odorata","SA,Vic","Combination","Y",2834,1686,0.2834,15.97083,20.23333,11.88333,478,77,11,58.495,217,45,45,217,9.241667,50.50091,344.3139,26.2,7.9,18.3,11.88333,20.23333,0.1686,477.8314,""
"76","R068/T10",-27.69,1.5,49,1154,1995,"Eucalyptus absita","Eucalyptus absita","Adnataria","x",12.64,13.01,9.53,9.45,3.35,4.2415,2.21,"Eucalyptus absita","Eucalyptus absita","","Species","D.Nicolle","Badgingarra, WA",30,26,13,115,34,32,68,10,"Alive","Moderate","2","Slight","1","?","None evident","","","","","None evident","Flowered","Flowered",1995,"0",-30.43694444,115.5755556,"Eucalyptus absita","WA","Lignotuber","Y",2540,2223,0.254,18.63750076,24.98333359,12.89999962,565,110,9,76.91886139,300,37,47,300,13.82499981,51.20370102,503.5786743,34.20000076,7.199999809,27,12.89999962,24.73333359,0.2223,564.7777,""
"77","R069/T23",-28.09,1.4,48.9,NA,NA,NA,NA,NA,NA,NA,NA,NA,NA,NA,NA,NA,NA,NA,NA,NA,NA,NA,NA,NA,NA,NA,NA,NA,NA,NA,NA,NA,NA,NA,NA,NA,NA,NA,NA,NA,NA,NA,NA,NA,NA,NA,NA,NA,NA,NA,NA,NA,NA,NA,NA,NA,NA,NA,NA,NA,NA,NA,NA,NA,NA,NA,NA,NA,NA,NA,NA,NA,NA,NA,NA,NA,NA
"78","R069/T25",-27.66,1,48.3,NA,NA,NA,NA,NA,NA,NA,NA,NA,NA,NA,NA,NA,NA,NA,NA,NA,NA,NA,NA,NA,NA,NA,NA,NA,NA,NA,NA,NA,NA,NA,NA,NA,NA,NA,NA,NA,NA,NA,NA,NA,NA,NA,NA,NA,NA,NA,NA,NA,NA,NA,NA,NA,NA,NA,NA,NA,NA,NA,NA,NA,NA,NA,NA,NA,NA,NA,NA,NA,NA,NA,NA,NA,NA
"79","R069/T26",-27.99,1,50,NA,NA,NA,NA,NA,NA,NA,NA,NA,NA,NA,NA,NA,NA,NA,NA,NA,NA,NA,NA,NA,NA,NA,NA,NA,NA,NA,NA,NA,NA,NA,NA,NA,NA,NA,NA,NA,NA,NA,NA,NA,NA,NA,NA,NA,NA,NA,NA,NA,NA,NA,NA,NA,NA,NA,NA,NA,NA,NA,NA,NA,NA,NA,NA,NA,NA,NA,NA,NA,NA,NA,NA,NA,NA
"80","R069/T32",-26.09,1.5,49.2,1131,1995,"Eucalyptus rudis subsp. rudis","Eucalyptus rudis subsp. rudis","Exsertaria","x",6.66,6.93,5.07,5.27,1.18,1.0948,0.64,"Eucalyptus rudis subsp. rudis","Eucalyptus rudis subsp. rudis","","Subspecies","D.Nicolle","Pallinup River, WA",34,24,21,118,43,48,69,32,"Alive","Severe","3","Severe","3","?","Scattered","Tertiary branches","3 - 6 months","None evident","","Severe","Flowered","Flowered",1995,"3",-34.40583333,118.73,"Eucalyptus rudis subsp. rudis","WA","Combination","Y",2801,1695,0.2801,16.34166718,20.58333397,12.1833334,475,63,18,36.12965775,169,66,74,159,11.88333321,56.8580513,346.6123962,27.60000038,6.699999809,20.90000153,13.1833334,20.41666603,0.1695,474.8305,""
"81","R069/T34",-26.71,1.9,49.3,1131,1995,"Eucalyptus rudis subsp. rudis","Eucalyptus rudis subsp. rudis","Exsertaria","x",12.08,11.81,9.57,9.24,3.58,2.4873,1.77,"Eucalyptus rudis subsp. rudis","Eucalyptus rudis subsp. rudis","","Subspecies","D.Nicolle","Pallinup River, WA",34,24,21,118,43,48,69,34,"Alive","Moderate","2","Moderate","2","?","None evident","","","","","Severe","Flowered","Flowered",1995,"3",-34.40583333,118.73,"Eucalyptus rudis subsp. rudis","WA","Combination","Y",2801,1695,0.2801,16.34166718,20.58333397,12.1833334,475,63,18,36.12965775,169,66,74,159,11.88333321,56.8580513,346.6123962,27.60000038,6.699999809,20.90000153,13.1833334,20.41666603,0.1695,474.8305,""
"82","R065/T15",-27.41,0.7,47.5,NA,NA,NA,NA,NA,NA,NA,NA,NA,NA,NA,NA,NA,NA,NA,NA,NA,NA,NA,NA,NA,NA,NA,NA,NA,NA,NA,NA,NA,NA,NA,NA,NA,NA,NA,NA,NA,NA,NA,NA,NA,NA,NA,NA,NA,NA,NA,NA,NA,NA,NA,NA,NA,NA,NA,NA,NA,NA,NA,NA,NA,NA,NA,NA,NA,NA,NA,NA,NA,NA,NA,NA,NA,NA
"83","R065/T16",-27.16,0.7,50.2,NA,NA,NA,NA,NA,NA,NA,NA,NA,NA,NA,NA,NA,NA,NA,NA,NA,NA,NA,NA,NA,NA,NA,NA,NA,NA,NA,NA,NA,NA,NA,NA,NA,NA,NA,NA,NA,NA,NA,NA,NA,NA,NA,NA,NA,NA,NA,NA,NA,NA,NA,NA,NA,NA,NA,NA,NA,NA,NA,NA,NA,NA,NA,NA,NA,NA,NA,NA,NA,NA,NA,NA,NA,NA
"84","R065/T17",-27.59,0.7,47.3,NA,NA,NA,NA,NA,NA,NA,NA,NA,NA,NA,NA,NA,NA,NA,NA,NA,NA,NA,NA,NA,NA,NA,NA,NA,NA,NA,NA,NA,NA,NA,NA,NA,NA,NA,NA,NA,NA,NA,NA,NA,NA,NA,NA,NA,NA,NA,NA,NA,NA,NA,NA,NA,NA,NA,NA,NA,NA,NA,NA,NA,NA,NA,NA,NA,NA,NA,NA,NA,NA,NA,NA,NA,NA
"85","R070/T37",-27.89,1.1,51.1,NA,NA,NA,NA,NA,NA,NA,NA,NA,NA,NA,NA,NA,NA,NA,NA,NA,NA,NA,NA,NA,NA,NA,NA,NA,NA,NA,NA,NA,NA,NA,NA,NA,NA,NA,NA,NA,NA,NA,NA,NA,NA,NA,NA,NA,NA,NA,NA,NA,NA,NA,NA,NA,NA,NA,NA,NA,NA,NA,NA,NA,NA,NA,NA,NA,NA,NA,NA,NA,NA,NA,NA,NA,NA
"86","R070/T40",-27.75,0.8,49,NA,NA,NA,NA,NA,NA,NA,NA,NA,NA,NA,NA,NA,NA,NA,NA,NA,NA,NA,NA,NA,NA,NA,NA,NA,NA,NA,NA,NA,NA,NA,NA,NA,NA,NA,NA,NA,NA,NA,NA,NA,NA,NA,NA,NA,NA,NA,NA,NA,NA,NA,NA,NA,NA,NA,NA,NA,NA,NA,NA,NA,NA,NA,NA,NA,NA,NA,NA,NA,NA,NA,NA,NA,NA
"87","R071/T08",-26.96,0.9,51.4,NA,NA,NA,NA,NA,NA,NA,NA,NA,NA,NA,NA,NA,NA,NA,NA,NA,NA,NA,NA,NA,NA,NA,NA,NA,NA,NA,NA,NA,NA,NA,NA,NA,NA,NA,NA,NA,NA,NA,NA,NA,NA,NA,NA,NA,NA,NA,NA,NA,NA,NA,NA,NA,NA,NA,NA,NA,NA,NA,NA,NA,NA,NA,NA,NA,NA,NA,NA,NA,NA,NA,NA,NA,NA
"88","R071/T10",-27.68,0.8,50.8,NA,NA,NA,NA,NA,NA,NA,NA,NA,NA,NA,NA,NA,NA,NA,NA,NA,NA,NA,NA,NA,NA,NA,NA,NA,NA,NA,NA,NA,NA,NA,NA,NA,NA,NA,NA,NA,NA,NA,NA,NA,NA,NA,NA,NA,NA,NA,NA,NA,NA,NA,NA,NA,NA,NA,NA,NA,NA,NA,NA,NA,NA,NA,NA,NA,NA,NA,NA,NA,NA,NA,NA,NA,NA
"89","R071/T11",-27.63,0.9,50.8,NA,NA,NA,NA,NA,NA,NA,NA,NA,NA,NA,NA,NA,NA,NA,NA,NA,NA,NA,NA,NA,NA,NA,NA,NA,NA,NA,NA,NA,NA,NA,NA,NA,NA,NA,NA,NA,NA,NA,NA,NA,NA,NA,NA,NA,NA,NA,NA,NA,NA,NA,NA,NA,NA,NA,NA,NA,NA,NA,NA,NA,NA,NA,NA,NA,NA,NA,NA,NA,NA,NA,NA,NA,NA
"90","R071/T13",-27.02,0.8,52.6,NA,NA,NA,NA,NA,NA,NA,NA,NA,NA,NA,NA,NA,NA,NA,NA,NA,NA,NA,NA,NA,NA,NA,NA,NA,NA,NA,NA,NA,NA,NA,NA,NA,NA,NA,NA,NA,NA,NA,NA,NA,NA,NA,NA,NA,NA,NA,NA,NA,NA,NA,NA,NA,NA,NA,NA,NA,NA,NA,NA,NA,NA,NA,NA,NA,NA,NA,NA,NA,NA,NA,NA,NA,NA
"91","R071/T15",-28.48,0.9,52.1,NA,NA,NA,NA,NA,NA,NA,NA,NA,NA,NA,NA,NA,NA,NA,NA,NA,NA,NA,NA,NA,NA,NA,NA,NA,NA,NA,NA,NA,NA,NA,NA,NA,NA,NA,NA,NA,NA,NA,NA,NA,NA,NA,NA,NA,NA,NA,NA,NA,NA,NA,NA,NA,NA,NA,NA,NA,NA,NA,NA,NA,NA,NA,NA,NA,NA,NA,NA,NA,NA,NA,NA,NA,NA
"92","R071/T28",-27.21,1.5,51,823,1995,"Eucalyptus camaldulensis subsp. camaldulensis","Eucalyptus camaldulensis subsp. camaldulensis","Exsertaria","x",10.06,10.02,7.94,7.76,2.46,2.7563,1.48,"Eucalyptus camaldulensis subsp. camaldulensis","Eucalyptus camaldulensis subsp. camaldulensis","","Subspecies","D.Nicolle","Kangaroo Island, SA",35,41,50,137,31,21,71,28,"Alive","Slight","1","None evident","0","?","None evident","","","","","None evident","Flowered","Flowered",1995,"0",-35.69722222,137.5225,"Eucalyptus camaldulensis subsp. camaldulensis","Vic,NSW,SA,Qld","Combination","Y",2842,1688,0.2842,15.95833,20.21667,11.86667,480,77,11,58.82229,219,45,45,219,9.283334,50.4529,344.6001,26.3,7.9,18.4,11.86667,20.21667,0.1688,479.8312,""
"93","R071/T29",-26.95,1.6,51,823,1995,"Eucalyptus camaldulensis subsp. camaldulensis","Eucalyptus camaldulensis subsp. camaldulensis","Exsertaria","x",8.09,8.36,6.83,6.55,1.73,2.3145,1.01,"Eucalyptus camaldulensis subsp. camaldulensis","Eucalyptus camaldulensis subsp. camaldulensis","","Subspecies","D.Nicolle","Kangaroo Island, SA",35,41,50,137,31,21,71,29,"Alive","None evident","0","None evident","0","?","","","","","","None evident","Flowered","Flowered",1995,"0",-35.69722222,137.5225,"Eucalyptus camaldulensis subsp. camaldulensis","Vic,NSW,SA,Qld","Combination","Y",2842,1688,0.2842,15.95833,20.21667,11.86667,480,77,11,58.82229,219,45,45,219,9.283334,50.4529,344.6001,26.3,7.9,18.4,11.86667,20.21667,0.1688,479.8312,""
"94","R071/T30",-28.22,1.3,52.3,823,1995,"Eucalyptus camaldulensis subsp. camaldulensis","Eucalyptus camaldulensis subsp. camaldulensis","Exsertaria","x",12.3,11.3,9.47,8.16,2.85,3.0638,1.61,"Eucalyptus camaldulensis subsp. camaldulensis","Eucalyptus camaldulensis subsp. camaldulensis","","Subspecies","D.Nicolle","Kangaroo Island, SA",35,41,50,137,31,21,71,30,"Alive","None evident","0","None evident","0","?","","","","","","None evident","Flowered","Flowered",1995,"0",-35.69722222,137.5225,"Eucalyptus camaldulensis subsp. camaldulensis","Vic,NSW,SA,Qld","Combination","Y",2842,1688,0.2842,15.95833,20.21667,11.86667,480,77,11,58.82229,219,45,45,219,9.283334,50.4529,344.6001,26.3,7.9,18.4,11.86667,20.21667,0.1688,479.8312,""
"95","R072/T04",-27.17,1.1,52.2,NA,NA,NA,NA,NA,NA,NA,NA,NA,NA,NA,NA,NA,NA,NA,NA,NA,NA,NA,NA,NA,NA,NA,NA,NA,NA,NA,NA,NA,NA,NA,NA,NA,NA,NA,NA,NA,NA,NA,NA,NA,NA,NA,NA,NA,NA,NA,NA,NA,NA,NA,NA,NA,NA,NA,NA,NA,NA,NA,NA,NA,NA,NA,NA,NA,NA,NA,NA,NA,NA,NA,NA,NA,NA
"96","R072/T05",-27.6,1.1,50.6,NA,NA,NA,NA,NA,NA,NA,NA,NA,NA,NA,NA,NA,NA,NA,NA,NA,NA,NA,NA,NA,NA,NA,NA,NA,NA,NA,NA,NA,NA,NA,NA,NA,NA,NA,NA,NA,NA,NA,NA,NA,NA,NA,NA,NA,NA,NA,NA,NA,NA,NA,NA,NA,NA,NA,NA,NA,NA,NA,NA,NA,NA,NA,NA,NA,NA,NA,NA,NA,NA,NA,NA,NA,NA
"97","R072/T07",-25.87,0.7,52.6,NA,NA,NA,NA,NA,NA,NA,NA,NA,NA,NA,NA,NA,NA,NA,NA,NA,NA,NA,NA,NA,NA,NA,NA,NA,NA,NA,NA,NA,NA,NA,NA,NA,NA,NA,NA,NA,NA,NA,NA,NA,NA,NA,NA,NA,NA,NA,NA,NA,NA,NA,NA,NA,NA,NA,NA,NA,NA,NA,NA,NA,NA,NA,NA,NA,NA,NA,NA,NA,NA,NA,NA,NA,NA
"98","R029/T06",-26.99,1.2,48,NA,1993,"Eucalyptus flindersii","Eucalyptus flindersii","Exsertaria","x",9.24,9.14,7.03,7.31,2.13,3.2845,1.38,"Eucalyptus flindersii","Eucalyptus flindersii","","Species","-","Devils Peak, SA",32,24,53,137,59,17,29,6,"Alive","None evident","0","Slight","1","?","None evident","","","","","None evident","Flowered","Flowered",1993,"0",-32.41472222,137.9880556,"Eucalyptus flindersii","SA","Lignotuber","Y",1907,2265,0.1907,16.23333,22.85,9.55,432,51,22,29.47174,143,72,78,143,12.4,46.26866,542.022,30.9,4.1,26.8,9.55,22.6,0.2265,431.7735,""
"99","R029/T07",-26.25,1,48.4,NA,1993,"Eucalyptus flindersii","Eucalyptus flindersii","Exsertaria","x",8.01,7.67,5.55,6.24,1.39,3.2047,0.94,"Eucalyptus flindersii","Eucalyptus flindersii","","Species","-","Devils Peak, SA",32,24,53,137,59,17,29,7,"Alive","None evident","0","None evident","0","?","","","","","","None evident","Flowered","Flowered",1993,"0",-32.41472222,137.9880556,"Eucalyptus flindersii","SA","Lignotuber","Y",1907,2265,0.1907,16.23333,22.85,9.55,432,51,22,29.47174,143,72,78,143,12.4,46.26866,542.022,30.9,4.1,26.8,9.55,22.6,0.2265,431.7735,""
"100","R029/709",-26.37,1.4,49.1,NA,NA,NA,NA,NA,NA,NA,NA,NA,NA,NA,NA,NA,NA,NA,NA,NA,NA,NA,NA,NA,NA,NA,NA,NA,NA,NA,NA,NA,NA,NA,NA,NA,NA,NA,NA,NA,NA,NA,NA,NA,NA,NA,NA,NA,NA,NA,NA,NA,NA,NA,NA,NA,NA,NA,NA,NA,NA,NA,NA,NA,NA,NA,NA,NA,NA,NA,NA,NA,NA,NA,NA,NA,NA
"101","R011/T27",-28.55,1.1,47.1,NA,NA,NA,NA,NA,NA,NA,NA,NA,NA,NA,NA,NA,NA,NA,NA,NA,NA,NA,NA,NA,NA,NA,NA,NA,NA,NA,NA,NA,NA,NA,NA,NA,NA,NA,NA,NA,NA,NA,NA,NA,NA,NA,NA,NA,NA,NA,NA,NA,NA,NA,NA,NA,NA,NA,NA,NA,NA,NA,NA,NA,NA,NA,NA,NA,NA,NA,NA,NA,NA,NA,NA,NA,NA
"102","R011/T28",-26.34,0.9,48.1,NA,NA,NA,NA,NA,NA,NA,NA,NA,NA,NA,NA,NA,NA,NA,NA,NA,NA,NA,NA,NA,NA,NA,NA,NA,NA,NA,NA,NA,NA,NA,NA,NA,NA,NA,NA,NA,NA,NA,NA,NA,NA,NA,NA,NA,NA,NA,NA,NA,NA,NA,NA,NA,NA,NA,NA,NA,NA,NA,NA,NA,NA,NA,NA,NA,NA,NA,NA,NA,NA,NA,NA,NA,NA
"103","R011/T30",-26.54,1.1,49.8,NA,NA,NA,NA,NA,NA,NA,NA,NA,NA,NA,NA,NA,NA,NA,NA,NA,NA,NA,NA,NA,NA,NA,NA,NA,NA,NA,NA,NA,NA,NA,NA,NA,NA,NA,NA,NA,NA,NA,NA,NA,NA,NA,NA,NA,NA,NA,NA,NA,NA,NA,NA,NA,NA,NA,NA,NA,NA,NA,NA,NA,NA,NA,NA,NA,NA,NA,NA,NA,NA,NA,NA,NA,NA
"104","R016/T41",-27.17,1.6,49.7,NA,NA,NA,NA,NA,NA,NA,NA,NA,NA,NA,NA,NA,NA,NA,NA,NA,NA,NA,NA,NA,NA,NA,NA,NA,NA,NA,NA,NA,NA,NA,NA,NA,NA,NA,NA,NA,NA,NA,NA,NA,NA,NA,NA,NA,NA,NA,NA,NA,NA,NA,NA,NA,NA,NA,NA,NA,NA,NA,NA,NA,NA,NA,NA,NA,NA,NA,NA,NA,NA,NA,NA,NA,NA
"105","R016/T42",-29.19,1.6,48.5,NA,NA,NA,NA,NA,NA,NA,NA,NA,NA,NA,NA,NA,NA,NA,NA,NA,NA,NA,NA,NA,NA,NA,NA,NA,NA,NA,NA,NA,NA,NA,NA,NA,NA,NA,NA,NA,NA,NA,NA,NA,NA,NA,NA,NA,NA,NA,NA,NA,NA,NA,NA,NA,NA,NA,NA,NA,NA,NA,NA,NA,NA,NA,NA,NA,NA,NA,NA,NA,NA,NA,NA,NA,NA
"106","R016/T43",-29.66,1.4,49.4,NA,NA,NA,NA,NA,NA,NA,NA,NA,NA,NA,NA,NA,NA,NA,NA,NA,NA,NA,NA,NA,NA,NA,NA,NA,NA,NA,NA,NA,NA,NA,NA,NA,NA,NA,NA,NA,NA,NA,NA,NA,NA,NA,NA,NA,NA,NA,NA,NA,NA,NA,NA,NA,NA,NA,NA,NA,NA,NA,NA,NA,NA,NA,NA,NA,NA,NA,NA,NA,NA,NA,NA,NA,NA
"107","R039/T09",-26.56,1.7,49.8,545,1994,"Eucalyptus lucasii","Eucalyptus lucasii","Adnataria","x",8.27,8.45,6.43,6.09,1.23,3.9716,0.89,"Eucalyptus lucasii","Eucalyptus lucasii","","Species","D.Nicolle","Wiluna, WA",26,35,28,120,6,59,39,9,"Alive","None evident","0","None evident","0","?","","","","","","None evident","Flowered","Flowered",1994,"0",-26.59111111,120.1163889,"Eucalyptus lucasii","WA","Lignotuber","Y",911,3015,0.0911,21.86667,29.85,13.38333,275,45,4,50.25203,109,24,104,57,14.31667,43.78186,668.5409,38.3,5.6,32.7,29.26667,18.1,0.3015,274.6985,""
"108","R039/T11",-25.84,1.5,50.5,545,1994,"Eucalyptus lucasii","Eucalyptus lucasii","Adnataria","x",7.5,7.34,5.63,5.27,1.21,4.1702,0.84,"Eucalyptus lucasii","Eucalyptus lucasii","","Species","D.Nicolle","Wiluna, WA",26,35,28,120,6,59,39,11,"Alive","None evident","0","None evident","0","?","","","","","","None evident","Flowered","Flowered",1994,"0",-26.59111111,120.1163889,"Eucalyptus lucasii","WA","Lignotuber","Y",911,3015,0.0911,21.86667,29.85,13.38333,275,45,4,50.25203,109,24,104,57,14.31667,43.78186,668.5409,38.3,5.6,32.7,29.26667,18.1,0.3015,274.6985,""
"109","R039/T12",-25.41,1.4,48.7,545,1994,"Eucalyptus lucasii","Eucalyptus lucasii","Adnataria","x",10.76,9.79,7.57,8.46,2.63,2.9318,1.93,"Eucalyptus lucasii","Eucalyptus lucasii","","Species","D.Nicolle","Wiluna, WA",26,35,28,120,6,59,39,12,"Alive","None evident","0","None evident","0","?","","","","","","None evident","Flowered","Flowered",1994,"0",-26.59111111,120.1163889,"Eucalyptus lucasii","WA","Lignotuber","Y",911,3015,0.0911,21.86667,29.85,13.38333,275,45,4,50.25203,109,24,104,57,14.31667,43.78186,668.5409,38.3,5.6,32.7,29.26667,18.1,0.3015,274.6985,""
"110","R040/T12",-28.61,1.5,49.1,482,1994,"Eucalyptus porosa","Eucalyptus porosa","Adnataria","x",8.05,8.59,6.57,6.65,1.73,1.6411,1.17,"Eucalyptus porosa","Eucalyptus porosa","","Species","D.Nicolle","Mt Wudinna, SA",32,59,9,135,32,49,40,12,"Alive","None evident","0","None evident","0","?","","","","","","None evident","Flowered","Flowered",1994,"0",-32.98583333,135.5469444,"Eucalyptus porosa","SA,Vic,NSW","Combination","Y",1605,2080,0.1605,16.8875,22.51667,11.15,334,43,12,39.51138,125,42,48,124,14.50833,53.93433,462.0071,32,5.1,26.9,11.88333,22.31667,0.208,333.792,""
"111","R040/T14",-27.29,1.3,50.2,482,1994,"Eucalyptus porosa","Eucalyptus porosa","Adnataria","x",8.67,7.93,6.25,7.29,1.76,1.2349,1.35,"Eucalyptus porosa","Eucalyptus porosa","","Species","D.Nicolle","Mt Wudinna, SA",32,59,9,135,32,49,40,14,"Alive","None evident","0","None evident","0","?","","","","","","None evident","Flowered","Flowered",1994,"0",-32.98583333,135.5469444,"Eucalyptus porosa","SA,Vic,NSW","Combination","Y",1605,2080,0.1605,16.8875,22.51667,11.15,334,43,12,39.51138,125,42,48,124,14.50833,53.93433,462.0071,32,5.1,26.9,11.88333,22.31667,0.208,333.792,""
"112","R040/T15",-30.39,1.1,50.3,482,1994,"Eucalyptus porosa","Eucalyptus porosa","Adnataria","x",10.83,11.25,9.09,8.98,2.36,2.4295,1.77,"Eucalyptus porosa","Eucalyptus porosa","","Species","D.Nicolle","Mt Wudinna, SA",32,59,9,135,32,49,40,15,"Alive","None evident","0","None evident","0","?","","","","","","None evident","Flowered","Flowered",1994,"0",-32.98583333,135.5469444,"Eucalyptus porosa","SA,Vic,NSW","Combination","Y",1605,2080,0.1605,16.8875,22.51667,11.15,334,43,12,39.51138,125,42,48,124,14.50833,53.93433,462.0071,32,5.1,26.9,11.88333,22.31667,0.208,333.792,""
"113","R041/T32",-28.4,0.7,48.2,NA,NA,NA,NA,NA,NA,NA,NA,NA,NA,NA,NA,NA,NA,NA,NA,NA,NA,NA,NA,NA,NA,NA,NA,NA,NA,NA,NA,NA,NA,NA,NA,NA,NA,NA,NA,NA,NA,NA,NA,NA,NA,NA,NA,NA,NA,NA,NA,NA,NA,NA,NA,NA,NA,NA,NA,NA,NA,NA,NA,NA,NA,NA,NA,NA,NA,NA,NA,NA,NA,NA,NA,NA,NA
"114","R041/T33",-28.42,0.8,50.9,NA,NA,NA,NA,NA,NA,NA,NA,NA,NA,NA,NA,NA,NA,NA,NA,NA,NA,NA,NA,NA,NA,NA,NA,NA,NA,NA,NA,NA,NA,NA,NA,NA,NA,NA,NA,NA,NA,NA,NA,NA,NA,NA,NA,NA,NA,NA,NA,NA,NA,NA,NA,NA,NA,NA,NA,NA,NA,NA,NA,NA,NA,NA,NA,NA,NA,NA,NA,NA,NA,NA,NA,NA,NA
"115","R041/T34",-27.64,0.8,50.6,NA,NA,NA,NA,NA,NA,NA,NA,NA,NA,NA,NA,NA,NA,NA,NA,NA,NA,NA,NA,NA,NA,NA,NA,NA,NA,NA,NA,NA,NA,NA,NA,NA,NA,NA,NA,NA,NA,NA,NA,NA,NA,NA,NA,NA,NA,NA,NA,NA,NA,NA,NA,NA,NA,NA,NA,NA,NA,NA,NA,NA,NA,NA,NA,NA,NA,NA,NA,NA,NA,NA,NA,NA,NA
"116","R042/T08",-25.6,1,50.6,427,1994,"Eucalyptus sparsa","Eucalyptus sparsa","Adnataria","x",7.58,7.49,5.99,6.11,1.45,2.8952,1.03,"Eucalyptus sparsa","Eucalyptus sparsa","","Species","D.Nicolle","Everard Ranges, SA",27,0,34,132,30,56,42,8,"Alive","None evident","0","None evident","0","?","","","","","","None evident","Flowered","Flowered",1994,"0",-27.00944444,132.5155556,"Eucalyptus sparsa","SA,WA,NT","Lignotuber","Y",956,2886,0.0956,19.7625,26.9,12.03333,276,38,12,34.03615,103,45,92,46,13.675,45.73579,603.1212,34.8,4.9,29.9,26.28333,12.73333,0.2886,275.7114,""
"117","R048/T10",-25.49,1.2,49,NA,NA,NA,NA,NA,NA,NA,NA,NA,NA,NA,NA,NA,NA,NA,NA,NA,NA,NA,NA,NA,NA,NA,NA,NA,NA,NA,NA,NA,NA,NA,NA,NA,NA,NA,NA,NA,NA,NA,NA,NA,NA,NA,NA,NA,NA,NA,NA,NA,NA,NA,NA,NA,NA,NA,NA,NA,NA,NA,NA,NA,NA,NA,NA,NA,NA,NA,NA,NA,NA,NA,NA,NA,NA
"118","R042/T11",-25.44,1.1,50.7,427,1994,"Eucalyptus sparsa","Eucalyptus sparsa","Adnataria","x",6.07,6.02,4.37,4.26,0.71,3.2712,0.52,"Eucalyptus sparsa","Eucalyptus sparsa","","Species","D.Nicolle","Everard Ranges, SA",27,0,34,132,30,56,42,11,"Alive","None evident","0","None evident","0","?","","","","","","None evident","Flowered","Flowered",1994,"0",-27.00944444,132.5155556,"Eucalyptus sparsa","SA,WA,NT","Lignotuber","Y",956,2886,0.0956,19.7625,26.9,12.03333,276,38,12,34.03615,103,45,92,46,13.675,45.73579,603.1212,34.8,4.9,29.9,26.28333,12.73333,0.2886,275.7114,""
"119","R042/T32",-26.2,0.8,50.4,NA,NA,NA,NA,NA,NA,NA,NA,NA,NA,NA,NA,NA,NA,NA,NA,NA,NA,NA,NA,NA,NA,NA,NA,NA,NA,NA,NA,NA,NA,NA,NA,NA,NA,NA,NA,NA,NA,NA,NA,NA,NA,NA,NA,NA,NA,NA,NA,NA,NA,NA,NA,NA,NA,NA,NA,NA,NA,NA,NA,NA,NA,NA,NA,NA,NA,NA,NA,NA,NA,NA,NA,NA,NA
"120","R042/T34",-28.02,0.8,49.7,NA,NA,NA,NA,NA,NA,NA,NA,NA,NA,NA,NA,NA,NA,NA,NA,NA,NA,NA,NA,NA,NA,NA,NA,NA,NA,NA,NA,NA,NA,NA,NA,NA,NA,NA,NA,NA,NA,NA,NA,NA,NA,NA,NA,NA,NA,NA,NA,NA,NA,NA,NA,NA,NA,NA,NA,NA,NA,NA,NA,NA,NA,NA,NA,NA,NA,NA,NA,NA,NA,NA,NA,NA,NA
"121","R044/T01",-28.82,1,49.5,NA,NA,NA,NA,NA,NA,NA,NA,NA,NA,NA,NA,NA,NA,NA,NA,NA,NA,NA,NA,NA,NA,NA,NA,NA,NA,NA,NA,NA,NA,NA,NA,NA,NA,NA,NA,NA,NA,NA,NA,NA,NA,NA,NA,NA,NA,NA,NA,NA,NA,NA,NA,NA,NA,NA,NA,NA,NA,NA,NA,NA,NA,NA,NA,NA,NA,NA,NA,NA,NA,NA,NA,NA,NA
"122","R044/T03",-27.16,1.3,49.3,NA,NA,NA,NA,NA,NA,NA,NA,NA,NA,NA,NA,NA,NA,NA,NA,NA,NA,NA,NA,NA,NA,NA,NA,NA,NA,NA,NA,NA,NA,NA,NA,NA,NA,NA,NA,NA,NA,NA,NA,NA,NA,NA,NA,NA,NA,NA,NA,NA,NA,NA,NA,NA,NA,NA,NA,NA,NA,NA,NA,NA,NA,NA,NA,NA,NA,NA,NA,NA,NA,NA,NA,NA,NA
"123","R044/T04",-28.64,0.9,49.5,NA,NA,NA,NA,NA,NA,NA,NA,NA,NA,NA,NA,NA,NA,NA,NA,NA,NA,NA,NA,NA,NA,NA,NA,NA,NA,NA,NA,NA,NA,NA,NA,NA,NA,NA,NA,NA,NA,NA,NA,NA,NA,NA,NA,NA,NA,NA,NA,NA,NA,NA,NA,NA,NA,NA,NA,NA,NA,NA,NA,NA,NA,NA,NA,NA,NA,NA,NA,NA,NA,NA,NA,NA,NA
"124","R045/T14",-29.75,0.8,47.2,423,1994,"Eucalyptus intertexta","Eucalyptus intertexta","Adnataria","x",7.39,7.52,6.15,6.07,1.46,2.5873,1,"Eucalyptus intertexta","Eucalyptus intertexta","","Species","D.Nicolle","Everard Ranges, SA",27,2,20,132,32,55,45,14,"Alive","None evident","0","None evident","0","?","","","","","","None evident","Flowered","Flowered",1994,"0",-27.03888889,132.5486111,"Eucalyptus intertexta","NSW,SA,Qld, NT, WA","Combination","Y",934,2932,0.0934,19.89167,27.13333,12.03333,274,37,12,32.83533,101,46,91,46,14.5,46.77419,613.1618,35.4,4.4,31,26.5,12.71667,0.2932,273.7068,""
"125","R045/T15",-29.15,0.9,47.7,423,1994,"Eucalyptus intertexta","Eucalyptus intertexta","Adnataria","x",8.35,8.78,6.27,6.53,1.58,2.2672,1.08,"Eucalyptus intertexta","Eucalyptus intertexta","","Species","D.Nicolle","Everard Ranges, SA",27,2,20,132,32,55,45,15,"Alive","None evident","0","None evident","0","?","","","","","","None evident","Flowered","Flowered",1994,"0",-27.03888889,132.5486111,"Eucalyptus intertexta","NSW,SA,Qld, NT, WA","Combination","Y",934,2932,0.0934,19.89167,27.13333,12.03333,274,37,12,32.83533,101,46,91,46,14.5,46.77419,613.1618,35.4,4.4,31,26.5,12.71667,0.2932,273.7068,""
"126","R045/T16",-29.13,1,48.6,423,1994,"Eucalyptus intertexta","Eucalyptus intertexta","Adnataria","x",8.53,9,6.05,5.69,1.33,2.3012,0.82,"Eucalyptus intertexta","Eucalyptus intertexta","","Species","D.Nicolle","Everard Ranges, SA",27,2,20,132,32,55,45,16,"Alive","None evident","0","None evident","0","?","","","","","","None evident","Flowered","Flowered",1994,"0",-27.03888889,132.5486111,"Eucalyptus intertexta","NSW,SA,Qld, NT, WA","Combination","Y",934,2932,0.0934,19.89167,27.13333,12.03333,274,37,12,32.83533,101,46,91,46,14.5,46.77419,613.1618,35.4,4.4,31,26.5,12.71667,0.2932,273.7068,""
"127","R046/T36",-29.39,1.1,49.3,742,1994,"Eucalyptus polyanthemos subsp. polyanthemos","Eucalyptus polyanthemos subsp. polyanthemos","Adnataria","x",8.57,7.65,6.61,5.73,1.44,3.8141,0.99,"Eucalyptus polyanthemos subsp. polyanthemos","Eucalyptus polyanthemos subsp. polyanthemos","","Subspecies","D.Nicolle","Rylstone, NSW",32,41,37,150,0,10,46,36,"Alive","None evident","0","None evident","0","?","","","","","","None evident","Flowered","Flowered",1994,"0",-32.69361111,150.0027778,"Eucalyptus polyanthemos subsp. polyanthemos","NSW","Combination","Y",4899,1551,0.4899,14.15833,20.45,7.666667,760,93,42,20.11829,233,151,233,157,12,46.33205,514.6924,27.7,1.8,25.9,20.45,11.06667,0.1551,759.8449,""
"128","R047/T05",-28.4,1.1,48.5,747,1994,"Eucalyptus conica","Eucalyptus conica","Adnataria","x",13.42,14.13,10.85,11.93,5.15,2.8956,3.55,"Eucalyptus conica","Eucalyptus conica","","Species","D.Nicolle","Bylong, NSW",32,24,14,150,13,20,47,5,"Alive","Slight","1","Slight","1","?","Scattered","Secondary & tertiary branches","3 - 6 months","None evident","","Slight","Flowered","Flowered",1994,"1",-32.40388889,150.2222222,"Eucalyptus conica","NSW","Combination","Y",3791,1722,0.3791,16.7875,23.01667,10.25,653,94,33,30.08189,227,121,227,122,12.30833,46.97837,514.1724,29.9,3.7,26.2,23.01667,13.66667,0.1722,652.8278,""
"129","R047/T06",-27.45,1.3,49.8,747,1994,"Eucalyptus conica","Eucalyptus conica","Adnataria","x",12.02,12.1,9.24,9.04,3,1.787,2.03,"Eucalyptus conica","Eucalyptus conica","","Species","D.Nicolle","Bylong, NSW",32,24,14,150,13,20,47,6,"Alive","Slight","1","Slight","1","?","Scattered","Secondary & tertiary branches","3 - 6 months","None evident","","None evident","Flowered","Flowered",1994,"0",-32.40388889,150.2222222,"Eucalyptus conica","NSW","Combination","Y",3791,1722,0.3791,16.7875,23.01667,10.25,653,94,33,30.08189,227,121,227,122,12.30833,46.97837,514.1724,29.9,3.7,26.2,23.01667,13.66667,0.1722,652.8278,""
"130","R047/T08",-28.47,1.1,50.1,747,1994,"Eucalyptus conica","Eucalyptus conica","Adnataria","x",13.37,12.38,9.21,10.84,3.61,1.3188,2.41,"Eucalyptus conica","Eucalyptus conica","","Species","D.Nicolle","Bylong, NSW",32,24,14,150,13,20,47,8,"Alive","Slight","1","Slight","1","?","None evident","","","","","Moderate","","",1994,"2",-32.40388889,150.2222222,"Eucalyptus conica","NSW","Combination","Y",3791,1722,0.3791,16.7875,23.01667,10.25,653,94,33,30.08189,227,121,227,122,12.30833,46.97837,514.1724,29.9,3.7,26.2,23.01667,13.66667,0.1722,652.8278,""
"131","R047/T19",-28.98,1,48.3,743,1994,"Eucalyptus dawsonii","Eucalyptus dawsonii","Adnataria","x",12.6,12.97,9.71,10.48,5.14,3.4601,3.28,"Eucalyptus dawsonii","Eucalyptus dawsonii","","Species","D.Nicolle","Ginghi, NSW",32,36,31,150,4,29,47,19,"Alive","None evident","0","None evident","0","?","","","","","","None evident","Flowered","Flowered",1994,"0",-32.60861111,150.0747222,"Eucalyptus dawsonii","NSW","Combination","Y",4369,1590,0.4369,15.21667,21.3,8.916667,695,91,37,23.41216,222,135,222,136,11.15,45.3252,497.8971,27.8,3.2,24.6,21.3,12.28333,0.159,694.841,""
"132","R047/T20",-28.83,1.1,48.9,743,1994,"Eucalyptus dawsonii","Eucalyptus dawsonii","Adnataria","x",11.44,11.32,8.59,9.12,2.68,2.7477,1.73,"Eucalyptus dawsonii","Eucalyptus dawsonii","","Species","D.Nicolle","Ginghi, NSW",32,36,31,150,4,29,47,20,"Alive","Slight","1","None evident","0","?","None evident","","","","","None evident","Flowered","Flowered",1994,"0",-32.60861111,150.0747222,"Eucalyptus dawsonii","NSW","Combination","Y",4369,1590,0.4369,15.21667,21.3,8.916667,695,91,37,23.41216,222,135,222,136,11.15,45.3252,497.8971,27.8,3.2,24.6,21.3,12.28333,0.159,694.841,""
"133","R047/T21",-28.13,1.2,49.3,743,1994,"Eucalyptus dawsonii","Eucalyptus dawsonii","Adnataria","x",9.47,8.39,6.93,7.53,1.85,2.8784,1.22,"Eucalyptus dawsonii","Eucalyptus dawsonii","","Species","D.Nicolle","Ginghi, NSW",32,36,31,150,4,29,47,21,"Alive","Slight","1","Slight","1","?","None evident","","","","","None evident","Flowered","Flowered",1994,"0",-32.60861111,150.0747222,"Eucalyptus dawsonii","NSW","Combination","Y",4369,1590,0.4369,15.21667,21.3,8.916667,695,91,37,23.41216,222,135,222,136,11.15,45.3252,497.8971,27.8,3.2,24.6,21.3,12.28333,0.159,694.841,""
"134","R048/T13",-25.9,0.9,50,777,1994,"Eucalyptus melliodora","Eucalyptus melliodora","Adnataria","x",12.06,12.93,9.38,9.88,3.44,2.7063,2.17,"Eucalyptus melliodora","Eucalyptus melliodora","","Species","D.Nicolle","Rylstone, NSW",32,42,44,149,57,58,48,13,"Alive","Slight","1","None evident","0","?","None evident","","","","","None evident","Flowered","Flowered",1994,"0",-32.71222222,149.9661111,"Eucalyptus melliodora","NSW,Vic,Qld","Combination","Y",4644,1580,0.4644,14.475,20.86667,7.866667,734,90,40,20.44896,227,145,227,150,12.66667,47.26368,523.3003,28.4,1.6,26.8,20.86667,11.3,0.158,733.842,""
"135","R048/T14",-28.91,1,48.2,777,1994,"Eucalyptus melliodora","Eucalyptus melliodora","Adnataria","x",12.27,11.96,9.23,9.51,3.6,2.1894,2.43,"Eucalyptus melliodora","Eucalyptus melliodora","","Species","D.Nicolle","Rylstone, NSW",32,42,44,149,57,58,48,14,"Alive","None evident","0","Slight","1","?","None evident","","","","","None evident","Flowered","Flowered",1994,"0",-32.71222222,149.9661111,"Eucalyptus melliodora","NSW,Vic,Qld","Combination","Y",4644,1580,0.4644,14.475,20.86667,7.866667,734,90,40,20.44896,227,145,227,150,12.66667,47.26368,523.3003,28.4,1.6,26.8,20.86667,11.3,0.158,733.842,""
"136","R048/T15",-27.78,1.2,48.3,777,1994,"Eucalyptus melliodora","Eucalyptus melliodora","Adnataria","x",13.61,12.1,9.24,11.06,3.71,2.1719,2.48,"Eucalyptus melliodora","Eucalyptus melliodora","","Species","D.Nicolle","Rylstone, NSW",32,42,44,149,57,58,48,15,"Alive","Slight","1","Slight","1","?","None evident","","","","","None evident","Flowered","Flowered",1994,"0",-32.71222222,149.9661111,"Eucalyptus melliodora","NSW,Vic,Qld","Combination","Y",4644,1580,0.4644,14.475,20.86667,7.866667,734,90,40,20.44896,227,145,227,150,12.66667,47.26368,523.3003,28.4,1.6,26.8,20.86667,11.3,0.158,733.842,""
"137","R048/T18",-28.75,1,47.7,746,1994,"Eucalyptus caleyi subsp. caleyi","Eucalyptus caleyi subsp. caleyi","Adnataria","x",13.44,13.26,10.53,10.24,3.79,4.3974,2.44,"Eucalyptus caleyi subsp. caleyi","Eucalyptus caleyi subsp. caleyi","","Subspecies","D.Nicolle","Bylong, NSW",32,24,13,150,13,41,48,18,"Alive","None evident","0","None evident","0","?","","","","","","None evident","Flowered","Flowered",1994,"0",-32.40361111,150.2280556,"Eucalyptus caleyi subsp. caleyi","NSW,Qld","Combination","Y",3752,1726,0.3752,16.875,23.08333,10.33333,648,93,33,29.87578,225,120,225,120,12.21667,46.80715,513.5372,29.9,3.8,26.1,23.08333,10.33333,0.1726,647.8274,""
"138","R048/T19",-29.09,0.9,47,746,1994,"Eucalyptus caleyi subsp. caleyi","Eucalyptus caleyi subsp. caleyi","Adnataria","x",15.43,16.13,11.74,12.24,5.88,4.5628,3.96,"Eucalyptus caleyi subsp. caleyi","Eucalyptus caleyi subsp. caleyi","","Subspecies","D.Nicolle","Bylong, NSW",32,24,13,150,13,41,48,19,"Alive","None evident","0","None evident","0","?","","","","","","None evident","Flowered","Flowered",1994,"0",-32.40361111,150.2280556,"Eucalyptus caleyi subsp. caleyi","NSW,Qld","Combination","Y",3752,1726,0.3752,16.875,23.08333,10.33333,648,93,33,29.87578,225,120,225,120,12.21667,46.80715,513.5372,29.9,3.8,26.1,23.08333,10.33333,0.1726,647.8274,""
"139","R048/T22",-29.56,1.1,49.2,736,1994,"Eucalyptus polybractea","Eucalyptus polybractea","Adnataria","x",10.51,10.91,8.08,8.42,2.67,1.4191,2.09,"Eucalyptus polybractea","Eucalyptus polybractea","","Species","D.Nicolle","West Wyalong, NSW",33,53,32,147,4,24,48,22,"Alive","None evident","0","None evident","0","?","","","","","","None evident","Flowered","Flowered",1994,"0",-33.89222222,147.0733333,"Eucalyptus polybractea","Vic,SA,NSW","Lignotuber","Y",2660,1909,0.266,16.42917,23.88333,9,508,55,33,16.14885,141,108,129,121,12.79167,44.57027,604.0524,31.7,3,28.7,12.5,20.98333,0.1909,507.8091,""
"140","R048/T23",-29.8,0.9,49.3,736,1994,"Eucalyptus polybractea","Eucalyptus polybractea","Adnataria","x",9.49,8.39,7.92,6.67,2.27,2.9842,1.72,"Eucalyptus polybractea","Eucalyptus polybractea","","Species","D.Nicolle","West Wyalong, NSW",33,53,32,147,4,24,48,23,"Alive","None evident","0","None evident","0","?","","","","","","None evident","Flowered","Flowered",1994,"0",-33.89222222,147.0733333,"Eucalyptus polybractea","Vic,SA,NSW","Lignotuber","Y",2660,1909,0.266,16.42917,23.88333,9,508,55,33,16.14885,141,108,129,121,12.79167,44.57027,604.0524,31.7,3,28.7,12.5,20.98333,0.1909,507.8091,""
"141","R048/T24",-28.8,1,49.9,736,1994,"Eucalyptus polybractea","Eucalyptus polybractea","Adnataria","x",12.35,11.36,8.45,9.28,3.14,2.8898,2.33,"Eucalyptus polybractea","Eucalyptus polybractea","","Species","D.Nicolle","West Wyalong, NSW",33,53,32,147,4,24,48,24,"Alive","None evident","0","None evident","0","?","","","","","","None evident","Flowered","Flowered",1994,"0",-33.89222222,147.0733333,"Eucalyptus polybractea","Vic,SA,NSW","Lignotuber","Y",2660,1909,0.266,16.42917,23.88333,9,508,55,33,16.14885,141,108,129,121,12.79167,44.57027,604.0524,31.7,3,28.7,12.5,20.98333,0.1909,507.8091,""
"142","R048/T25",-28.27,1.3,48.7,751,1994,"Eucalyptus dwyeri","Eucalyptus dwyeri","Exsertaria","x",10.37,13.06,8.28,11.08,3.74,2.3607,2.28,"Eucalyptus dwyeri","Eucalyptus dwyeri","","Species","D.Nicolle","Wollar, NSW",32,18,7,150,2,50,48,25,"Alive","None evident","0","None evident","0","?","","","","","","Moderate","Flowered","Flowered",1994,"2",-32.30194444,150.0472222,"Eucalyptus dwyeri","NSW","Uncertain","Y",3934,1682,0.3934,16.08333,22.36667,9.516666,662,95,36,27.89203,222,125,222,126,11.38333,45.17196,518.2371,28.8,3.6,25.2,22.36667,12.96667,0.1682,661.8318,""
"143","R048/T28",-28.65,0.8,50.7,751,1994,"Eucalyptus dwyeri","Eucalyptus dwyeri","Exsertaria","x",10.3,9.57,8.57,7.39,2.56,3.3062,1.82,"Eucalyptus dwyeri","Eucalyptus dwyeri","","Species","D.Nicolle","Wollar, NSW",32,18,7,150,2,50,48,26,"Alive","None evident","0","None evident","0","?","","","","","","None evident","Flowered","Flowered",1994,"0",-32.30194444,150.0472222,"Eucalyptus dwyeri","NSW","Uncertain","Y",3934,1682,0.3934,16.08333,22.36667,9.516666,662,95,36,27.89203,222,125,222,126,11.38333,45.17196,518.2371,28.8,3.6,25.2,22.36667,12.96667,0.1682,661.8318,""
"144","R048/T27",-27.32,1,50.4,751,1994,"Eucalyptus dwyeri","Eucalyptus dwyeri","Exsertaria","x",13.6,11.97,10.07,11.1,4.44,2.9881,3.03,"Eucalyptus dwyeri","Eucalyptus dwyeri","","Species","D.Nicolle","Wollar, NSW",32,18,7,150,2,50,48,27,"Alive","None evident","0","None evident","0","?","","","","","","Moderate","Flowered","Flowered",1994,"2",-32.30194444,150.0472222,"Eucalyptus dwyeri","NSW","Uncertain","Y",3934,1682,0.3934,16.08333,22.36667,9.516666,662,95,36,27.89203,222,125,222,126,11.38333,45.17196,518.2371,28.8,3.6,25.2,22.36667,12.96667,0.1682,661.8318,""
"145","R049/T01",-28.06,1,48.9,690,1994,"Eucalyptus viridis","Eucalyptus viridis","Adnataria","x",11.64,11.04,8.99,9.01,2.95,2.1263,2.2,"Eucalyptus viridis","Eucalyptus viridis","","Species","D.Nicolle","Hermidale, NSW",31,33,37,146,30,33,49,1,"Alive","None evident","0","None evident","0","?","","","","","","None evident","Flowered","Flowered",1994,"0",-31.56027778,146.5091667,"Eucalyptus viridis","NSW,Vic,Qld","Lignotuber","Y",1985,2090,0.1985,18.2875,25.71667,10.61667,415,59,22,28.41955,141,82,141,82,12.575,43.6632,610.4846,33.1,4.3,28.8,25.71667,10.61667,0.209,414.791,""
"146","R049/T02",-28.57,1.3,50.2,690,1994,"Eucalyptus viridis","Eucalyptus viridis","Adnataria","x",10.8,10.03,8.36,7.8,1.94,1.5654,1.43,"Eucalyptus viridis","Eucalyptus viridis","","Species","D.Nicolle","Hermidale, NSW",31,33,37,146,30,33,49,2,"Alive","None evident","0","None evident","0","?","","","","","","None evident","Flowered","Flowered",1994,"0",-31.56027778,146.5091667,"Eucalyptus viridis","NSW,Vic,Qld","Lignotuber","Y",1985,2090,0.1985,18.2875,25.71667,10.61667,415,59,22,28.41955,141,82,141,82,12.575,43.6632,610.4846,33.1,4.3,28.8,25.71667,10.61667,0.209,414.791,""
"147","R049/T03",-28.79,1,49.6,690,1994,"Eucalyptus viridis","Eucalyptus viridis","Adnataria","x",9.1,8.72,6.9,6.87,1.55,1.9321,1.1,"Eucalyptus viridis","Eucalyptus viridis","","Species","D.Nicolle","Hermidale, NSW",31,33,37,146,30,33,49,3,"Alive","None evident","0","None evident","0","?","","","","","","None evident","Flowered","Flowered",1994,"0",-31.56027778,146.5091667,"Eucalyptus viridis","NSW,Vic,Qld","Lignotuber","Y",1985,2090,0.1985,18.2875,25.71667,10.61667,415,59,22,28.41955,141,82,141,82,12.575,43.6632,610.4846,33.1,4.3,28.8,25.71667,10.61667,0.209,414.791,""
"148","R049/T05",-27.83,1,47.4,681,1994,"Eucalyptus woollsiana","Eucalyptus woollsiana (E. pilligaensis)","Adnataria","x",10.57,9.87,8.56,7.29,2.48,1.8628,1.6,"Eucalyptus woollsiana","Eucalyptus woollsiana","","Species","D.Nicolle","Kogan, Qld",27,9,4,150,39,31,49,5,"Alive","None evident","0","None evident","0","?","","","","","","None evident","","",1994,"0",-27.15111111,150.6586111,"Eucalyptus woollsiana","Qld,NSW","Combination","Y",3100,1973,0.31,19.1125,25,12.21667,612,90,23,41.97261,238,84,238,84,12.95833,48.35199,519.152,31.7,4.9,26.8,24.21667,12.21667,0.1973,611.8027,""
"149","R049/T06",-28.04,1,46.7,681,1994,"Eucalyptus woollsiana","Eucalyptus woollsiana (E. pilligaensis)","Adnataria","x",10.26,10.57,8.07,8.21,2.41,2.2615,1.66,"Eucalyptus woollsiana","Eucalyptus woollsiana","","Species","D.Nicolle","Kogan, Qld",27,9,4,150,39,31,49,6,"Alive","None evident","0","None evident","0","?","","","","","","None evident","","",1994,"0",-27.15111111,150.6586111,"Eucalyptus woollsiana","Qld,NSW","Combination","Y",3100,1973,0.31,19.1125,25,12.21667,612,90,23,41.97261,238,84,238,84,12.95833,48.35199,519.152,31.7,4.9,26.8,24.21667,12.21667,0.1973,611.8027,""
"150","R049/T08",-29.47,1,49.1,681,1994,"Eucalyptus woollsiana","Eucalyptus woollsiana (E. pilligaensis)","Adnataria","x",10.71,9.93,8.33,7.58,2.69,3.786,2.01,"Eucalyptus woollsiana","Eucalyptus woollsiana","","Species","D.Nicolle","Kogan, Qld",27,9,4,150,39,31,49,8,"Alive","None evident","0","None evident","0","?","","","","","","None evident","","",1994,"0",-27.15111111,150.6586111,"Eucalyptus woollsiana","Qld,NSW","Combination","Y",3100,1973,0.31,19.1125,25,12.21667,612,90,23,41.97261,238,84,238,84,12.95833,48.35199,519.152,31.7,4.9,26.8,24.21667,12.21667,0.1973,611.8027,""
"151","R049/T15",-26.84,1.1,49.8,730,1994,"Eucalyptus morrisii","Eucalyptus morrisii","Exsertaria","x",8.77,9.55,7.48,6.9,2.28,5.0454,1.67,"Eucalyptus morrisii","Eucalyptus morrisii","","Species","D.Nicolle","Mt Boppy, NSW",31,32,27,146,16,47,49,15,"Alive","None evident","0","None evident","0","?","","","","","","None evident","Flowered","Flowered",1994,"0",-31.54083333,146.2797222,"Eucalyptus morrisii","NSW","Lignotuber","Y",1971,2069,0.1971,18.00833,25.36667,10.43333,408,56,23,26.01555,134,83,129,86,12.05,42.88256,604.866,32.5,4.4,28.1,23.95,14.3,0.2069,407.7931,""
"152","R049/T17",-28.83,0.8,48,690,1994,"Eucalyptus melanophloia subsp. melanophloia","Eucalyptus melanophloia subsp. melanophloia","Adnataria","x",10.01,10.73,7.71,7.22,1.87,3.2956,1.29,"Eucalyptus melanophloia subsp. melanophloia","Eucalyptus melanophloia subsp. melanophloia","","Subspecies","D.Nicolle","Wandoan, Qld",26,16,2,150,2,53,49,17,"Alive","None evident","0","None evident","0","?","","","","","","None evident","Flowered","Flowered",1994,"0",-26.26722222,150.0480556,"Eucalyptus melanophloia subsp. melanophloia","Qld,NSW","Combination","Y",3006,2082,0.3006,20.15833,26,13.25,626,92,27,44.66717,254,87,254,87,14.76667,51.6317,517.2867,33.3,4.7,28.6,26,13.25,0.2082,625.7918,""
"153","R049/T20",-28.74,1.2,50.2,713,1994,"Eucalyptus tereticornis subsp. tereticornis","Eucalyptus tereticornis subsp. tereticornis","Exsertaria","x",13.26,12.88,10.63,10.82,4.32,3.6252,2.31,"Eucalyptus tereticornis subsp. tereticornis","Eucalyptus tereticornis subsp. tereticornis","","Subspecies","D.Nicolle","Bororen, Qld",24,6,41,151,25,54,49,20,"Alive","Moderate","2","Moderate","2","?","Moderate","Tertiary branches","3 - 6 months","None evident","","None evident","","",1994,"0",-24.11138889,151.4316667,"Eucalyptus tereticornis subsp. tereticornis","Qld,NSW,PNG","Combination","Y",5833,1889,0.5833,21.95,25.95,17.05,1102,214,34,63.6283,531,108,507,108,10.21667,50.57756,362.4725,30.8,10.6,20.2,25.71667,17.05,0.1889,1101.811,""
"154","R049/T21",-28.49,1.2,50,713,1994,"Eucalyptus tereticornis subsp. tereticornis","Eucalyptus tereticornis subsp. tereticornis","Exsertaria","x",9.56,10.01,8.24,8.47,2.53,3.5207,1.37,"Eucalyptus tereticornis subsp. tereticornis","Eucalyptus tereticornis subsp. tereticornis","","Subspecies","D.Nicolle","Bororen, Qld",24,6,41,151,25,54,49,21,"Alive","Moderate","2","Slight","1","?","Extensive","Secondary & tertiary branches","3 - 6 months","None evident","","None evident","","",1994,"0",-24.11138889,151.4316667,"Eucalyptus tereticornis subsp. tereticornis","Qld,NSW,PNG","Combination","Y",5833,1889,0.5833,21.95,25.95,17.05,1102,214,34,63.6283,531,108,507,108,10.21667,50.57756,362.4725,30.8,10.6,20.2,25.71667,17.05,0.1889,1101.811,""
"155","R049/T23",-28.36,1.2,50.3,713,1994,"Eucalyptus tereticornis subsp. tereticornis","Eucalyptus tereticornis subsp. tereticornis","Exsertaria","x",11.13,11.34,9.48,9.39,3.23,3.4078,1.87,"Eucalyptus tereticornis subsp. tereticornis","Eucalyptus tereticornis subsp. tereticornis","","Subspecies","D.Nicolle","Bororen, Qld",24,6,41,151,25,54,49,23,"Alive","Moderate","2","Moderate","2","?","Moderate","Primary, secondary & tertiary branches","3 - 6 months","None evident","","None evident","","",1994,"0",-24.11138889,151.4316667,"Eucalyptus tereticornis subsp. tereticornis","Qld,NSW,PNG","Combination","Y",5833,1889,0.5833,21.95,25.95,17.05,1102,214,34,63.6283,531,108,507,108,10.21667,50.57756,362.4725,30.8,10.6,20.2,25.71667,17.05,0.1889,1101.811,""
"156","R049/T24",-28.52,0.8,48.3,712,1994,"Eucalyptus moluccana","Eucalyptus moluccana","Adnataria","x",10.49,10.17,8.66,8.6,2.56,3.2073,1.78,"Eucalyptus moluccana","Eucalyptus moluccana","","Species","D.Nicolle","Gladstone, Qld",23,48,4,150,57,12,49,24,"Alive","Slight","1","None evident","0","?","None evident","","","","","None evident","Flowered","Flowered",1994,"0",-23.80111111,150.9533333,"Eucalyptus moluccana","Qld,NSW","Combination","Y",4318,2019,0.4318,22.05833,26.21667,16.86667,872,168,30,60.026,406,96,406,96,11.4,52.53456,380.1544,31.5,9.8,21.7,26.21667,16.86667,0.2019,871.7981,""
"157","R049/T25",-28.39,0.7,47.8,712,1994,"Eucalyptus moluccana","Eucalyptus moluccana","Adnataria","x",14.98,13.83,10.85,11.48,4.51,6.2698,3.16,"Eucalyptus moluccana","Eucalyptus moluccana","","Species","D.Nicolle","Gladstone, Qld",23,48,4,150,57,12,49,25,"Alive","Slight","1","None evident","0","?","None evident","","","","","None evident","Flowered","Flowered",1994,"0",-23.80111111,150.9533333,"Eucalyptus moluccana","Qld,NSW","Combination","Y",4318,2019,0.4318,22.05833,26.21667,16.86667,872,168,30,60.026,406,96,406,96,11.4,52.53456,380.1544,31.5,9.8,21.7,26.21667,16.86667,0.2019,871.7981,""
"158","R049/T26",-28.13,0.8,47.3,712,1994,"Eucalyptus moluccana","Eucalyptus moluccana","Adnataria","x",11.33,10.94,7.97,8.53,2.62,5.019,1.89,"Eucalyptus moluccana","Eucalyptus moluccana","","Species","D.Nicolle","Gladstone, Qld",23,48,4,150,57,12,49,26,"Alive","None evident","0","None evident","0","?","","","","","","None evident","Flowered","Flowered",1994,"0",-23.80111111,150.9533333,"Eucalyptus moluccana","Qld,NSW","Combination","Y",4318,2019,0.4318,22.05833,26.21667,16.86667,872,168,30,60.026,406,96,406,96,11.4,52.53456,380.1544,31.5,9.8,21.7,26.21667,16.86667,0.2019,871.7981,""
"159","R050/T01",-28.24,0.9,46.9,722,1994,"Eucalyptus blakelyi","Eucalyptus blakelyi","Exsertaria","x",8.16,7.77,6.36,6.65,1.68,4.0107,0.88,"Eucalyptus blakelyi","Eucalyptus blakelyi","","Species","D.Nicolle","Inverell, NSW",29,44,45,151,33,38,50,1,"Alive","None evident","0","None evident","0","?","","","","","","None evident","Flowered","Flowered",1994,"0",-29.74583333,151.5605556,"Eucalyptus blakelyi","NSW,Vic,Qld","Combination","Y",5571,1590,0.5571,14.19583,19.91667,7.75,886,122,46,34.56039,329,153,328,153,12.69167,49.38391,493.0953,26.7,1,25.7,18.81667,11.61667,0.159,885.841,""
"160","R050/T03",-28.23,1.3,51,722,1994,"Eucalyptus blakelyi","Eucalyptus blakelyi","Exsertaria","x",11.65,11.18,9.7,9.98,3.5,3.081,1.81,"Eucalyptus blakelyi","Eucalyptus blakelyi","","Species","D.Nicolle","Inverell, NSW",29,44,45,151,33,38,50,3,"Alive","None evident","0","Slight","1","?","None evident","","","","","Severe","Flowered","Flowered",1994,"3",-29.74583333,151.5605556,"Eucalyptus blakelyi","NSW,Vic,Qld","Combination","Y",5571,1590,0.5571,14.19583,19.91667,7.75,886,122,46,34.56039,329,153,328,153,12.69167,49.38391,493.0953,26.7,1,25.7,18.81667,11.61667,0.159,885.841,""
"161","R050/T04",-27.47,1.4,49.1,722,1994,"Eucalyptus blakelyi","Eucalyptus blakelyi","Exsertaria","x",12.13,12.36,10.39,10.73,4.27,3.2393,2.3,"Eucalyptus blakelyi","Eucalyptus blakelyi","","Species","D.Nicolle","Inverell, NSW",29,44,45,151,33,38,50,4,"Alive","None evident","0","None evident","0","?","","","","","","None evident","Flowered","Flowered",1994,"0",-29.74583333,151.5605556,"Eucalyptus blakelyi","NSW,Vic,Qld","Combination","Y",5571,1590,0.5571,14.19583,19.91667,7.75,886,122,46,34.56039,329,153,328,153,12.69167,49.38391,493.0953,26.7,1,25.7,18.81667,11.61667,0.159,885.841,""
"162","R050/T06",-29.08,1.2,49.9,723,1994,"Eucalyptus dealbata","Eucalyptus dealbata","Exsertaria","x",11.2,11.43,9.73,9.17,3.3,3.3783,1.88,"Eucalyptus dealbata","Eucalyptus dealbata","","Species","D.Nicolle","Inverell, NSW",29,54,13,150,29,14,50,6,"Alive","Slight","1","Slight","1","?","Moderate","Secondary & tertiary branches","3 - 6 months","None evident","","None evident","","",1994,"0",-29.90361111,150.4872222,"Eucalyptus dealbata","NSW,Qld","Uncertain","Y",4153,1841,0.4153,16.67083,23.08333,9.7,765,105,41,28.27198,268,145,268,156,12.95833,47.81673,540.3007,30.2,3.1,27.1,23.08333,13.6,0.1841,764.8159,""
"163","R050/T09",-28.31,1.2,46.4,724,1994,"Eucalyptus dealbata","Eucalyptus dealbata","Exsertaria","x",10.83,11.25,9.67,8.52,3.16,2.0446,1.69,"Eucalyptus dealbata","Eucalyptus dealbata","","Species","D.Nicolle","Nandewar Range, NSW",30,8,23,150,4,4,50,9,"Alive","Moderate","2","Slight","1","?","None evident","","","","","None evident","Flowered","Flowered",1994,"0",-30.13972222,150.0677778,"Eucalyptus dealbata","NSW,Qld","Uncertain","Y",4164,1808,0.4164,16.0375,22.5,9.133333,753,109,43,27.24445,255,155,255,164,12.55833,46.85945,540.7491,29.5,2.7,26.8,22.5,16.71667,0.1808,752.8192,""
"164","R050/T11",-27.12,1.1,49.7,724,1994,"Eucalyptus dealbata","Eucalyptus dealbata","Exsertaria","x",9.78,10.92,7.86,9.06,2.8,2.7219,1.63,"Eucalyptus dealbata","Eucalyptus dealbata","","Species","D.Nicolle","Nandewar Range, NSW",30,8,23,150,4,4,50,11,"Alive","None evident","0","None evident","0","?","","","","","","None evident","Flowered","Flowered",1994,"0",-30.13972222,150.0677778,"Eucalyptus dealbata","NSW,Qld","Uncertain","Y",4164,1808,0.4164,16.0375,22.5,9.133333,753,109,43,27.24445,255,155,255,164,12.55833,46.85945,540.7491,29.5,2.7,26.8,22.5,16.71667,0.1808,752.8192,""
"165","R050/T15",-30.25,1.1,48.6,666,1994,"Eucalyptus crebra","Eucalyptus fibrosa","Adnataria","x",8.98,8.66,7.26,6.82,2.2,3.6776,1.42,"Eucalyptus fibrosa","Eucalyptus fibrosa","","Species","D.Nicolle","Baryulgil, NSW",29,18,8,152,38,41,50,15,"Alive","None evident","0","Slight","1","?","None evident","","","","","None evident","Flowered","Flowered",1994,"0",-29.30222222,152.6447222,"Eucalyptus fibrosa","Qld,NSW","Combination","Y",6368,1703,0.6368,18.67083,23.26667,13.28333,1085,168,28,53.90421,468,105,468,117,11.20833,50.71644,403.2902,28.8,6.7,22.1,23.26667,14.23333,0.1703,1084.83,""
"166","R050/T13",-28.39,0.7,46.8,666,1994,"Eucalyptus crebra","Eucalyptus fibrosa","Adnataria","x",9.38,9.32,7.46,7.72,2.31,3.2682,1.45,"Eucalyptus fibrosa","Eucalyptus fibrosa","","Species","D.Nicolle","Baryulgil, NSW",29,18,8,152,38,41,50,13,"Alive","None evident","0","Slight","1","?","None evident","","","","","None evident","Flowered","Flowered",1994,"0",-29.30222222,152.6447222,"Eucalyptus fibrosa","Qld,NSW","Combination","Y",6368,1703,0.6368,18.67083,23.26667,13.28333,1085,168,28,53.90421,468,105,468,117,11.20833,50.71644,403.2902,28.8,6.7,22.1,23.26667,14.23333,0.1703,1084.83,""
"167","R050/T16",-29.17,1.3,47.7,666,1994,"Eucalyptus crebra","Eucalyptus fibrosa","Adnataria","x",10.98,10.95,8.89,9.13,2.88,3.0713,1.83,"Eucalyptus fibrosa","Eucalyptus fibrosa","","Species","D.Nicolle","Baryulgil, NSW",29,18,8,152,38,41,50,16,"Alive","None evident","0","Slight","1","?","None evident","","","","","None evident","Flowered","Flowered",1994,"0",-29.30222222,152.6447222,"Eucalyptus fibrosa","Qld,NSW","Combination","Y",6368,1703,0.6368,18.67083,23.26667,13.28333,1085,168,28,53.90421,468,105,468,117,11.20833,50.71644,403.2902,28.8,6.7,22.1,23.26667,14.23333,0.1703,1084.83,""
"168","R050/T21",-26.11,1.2,49.2,720,1994,"Eucalyptus kabiana","Eucalyptus kabiana","Exsertaria","x",10.31,10.51,8.13,8.18,2.8,2.0384,1.93,"Eucalyptus kabiana","Eucalyptus kabiana","","Species","D.Nicolle","Mt Beerwah, Qld",26,53,42,152,52,51,50,21,"Alive","None evident","0","Slight","1","?","None evident","","","","","None evident","Flowered","Flowered",1994,"0",-26.895,152.8808333,"Eucalyptus kabiana","Qld","Lignotuber","Y",8963,1682,0.8963,19.24167,23.55,14.1,1508,247,48,49.98552,635,173,588,195,10.35,50.24272,383.6478,28.6,8,20.6,23.38333,14.9,0.1682,1507.832,""
"169","R050/T22",-26.85,1.2,49.1,720,1994,"Eucalyptus kabiana","Eucalyptus kabiana","Exsertaria","x",10.43,10.36,7.82,7.59,2.22,1.6199,1.52,"Eucalyptus kabiana","Eucalyptus kabiana","","Species","D.Nicolle","Mt Beerwah, Qld",26,53,42,152,52,51,50,22,"Alive","None evident","0","None evident","0","?","","","","","","None evident","Flowered","Flowered",1994,"0",-26.895,152.8808333,"Eucalyptus kabiana","Qld","Lignotuber","Y",8963,1682,0.8963,19.24167,23.55,14.1,1508,247,48,49.98552,635,173,588,195,10.35,50.24272,383.6478,28.6,8,20.6,23.38333,14.9,0.1682,1507.832,""
"170","R050/T23",-28.77,1.4,49.3,720,1994,"Eucalyptus kabiana","Eucalyptus kabiana","Exsertaria","x",8.63,9.13,7.39,6.84,1.89,1.9251,1.33,"Eucalyptus kabiana","Eucalyptus kabiana","","Species","D.Nicolle","Mt Beerwah, Qld",26,53,42,152,52,51,50,23,"Alive","None evident","0","Slight","1","?","None evident","","","","","None evident","Flowered","Flowered",1994,"0",-26.895,152.8808333,"Eucalyptus kabiana","Qld","Lignotuber","Y",8963,1682,0.8963,19.24167,23.55,14.1,1508,247,48,49.98552,635,173,588,195,10.35,50.24272,383.6478,28.6,8,20.6,23.38333,14.9,0.1682,1507.832,""
"171","R050/T33",-27.4,1.4,49.8,NA,NA,NA,NA,NA,NA,NA,NA,NA,NA,NA,NA,NA,NA,NA,NA,NA,NA,NA,NA,NA,NA,NA,NA,NA,NA,NA,NA,NA,NA,NA,NA,NA,NA,NA,NA,NA,NA,NA,NA,NA,NA,NA,NA,NA,NA,NA,NA,NA,NA,NA,NA,NA,NA,NA,NA,NA,NA,NA,NA,NA,NA,NA,NA,NA,NA,NA,NA,NA,NA,NA,NA,NA,NA
"172","R050/T35",-28.02,0.8,47.5,NA,NA,NA,NA,NA,NA,NA,NA,NA,NA,NA,NA,NA,NA,NA,NA,NA,NA,NA,NA,NA,NA,NA,NA,NA,NA,NA,NA,NA,NA,NA,NA,NA,NA,NA,NA,NA,NA,NA,NA,NA,NA,NA,NA,NA,NA,NA,NA,NA,NA,NA,NA,NA,NA,NA,NA,NA,NA,NA,NA,NA,NA,NA,NA,NA,NA,NA,NA,NA,NA,NA,NA,NA,NA
"173","R050/T36",-27.93,1.1,48.9,NA,NA,NA,NA,NA,NA,NA,NA,NA,NA,NA,NA,NA,NA,NA,NA,NA,NA,NA,NA,NA,NA,NA,NA,NA,NA,NA,NA,NA,NA,NA,NA,NA,NA,NA,NA,NA,NA,NA,NA,NA,NA,NA,NA,NA,NA,NA,NA,NA,NA,NA,NA,NA,NA,NA,NA,NA,NA,NA,NA,NA,NA,NA,NA,NA,NA,NA,NA,NA,NA,NA,NA,NA,NA
"174","R051/T01",-29.96,1.2,50.6,680,1994,"Eucalyptus elegans","Eucalyptus elegans","Adnataria","x",10.36,10.52,8.19,7.92,2.59,2.1761,1.76,"Eucalyptus elegans","Eucalyptus elegans","","Species","D.Nicolle","Kogan, Qld",27,7,0,150,41,36,51,1,"Alive","None evident","0","None evident","0","?","","","","","","None evident","Flowered","Flowered",1994,"0",-27.11666667,150.6933333,"Eucalyptus elegans","Qld,NSW","Combination","Y",3167,1944,0.3167,19.06667,24.93333,12.21667,616,89,24,41.21154,242,86,242,86,12.86667,48.37093,516.4183,31.6,5,26.6,24.93333,12.21667,0.1944,615.8056,""
"175","R051/T03",-29.89,1.5,49.2,680,1994,"Eucalyptus elegans","Eucalyptus elegans","Adnataria","x",9.61,10.22,7.41,7.58,2.33,1.0804,1.58,"Eucalyptus elegans","Eucalyptus elegans","","Species","D.Nicolle","Kogan, Qld",27,7,0,150,41,36,51,3,"Alive","None evident","0","None evident","0","?","","","","","","None evident","","",1994,"0",-27.11666667,150.6933333,"Eucalyptus elegans","Qld,NSW","Combination","Y",3167,1944,0.3167,19.06667,24.93333,12.21667,616,89,24,41.21154,242,86,242,86,12.86667,48.37093,516.4183,31.6,5,26.6,24.93333,12.21667,0.1944,615.8056,""
"176","R051/T04",-29.28,1.5,49.3,680,1994,"Eucalyptus elegans","Eucalyptus elegans","Adnataria","x",10.56,9.45,7.3,7.17,1.9,1.178,1.24,"Eucalyptus elegans","Eucalyptus elegans","","Species","D.Nicolle","Kogan, Qld",27,7,0,150,41,36,51,4,"Alive","None evident","0","None evident","0","?","","","","","","None evident","","",1994,"0",-27.11666667,150.6933333,"Eucalyptus elegans","Qld,NSW","Combination","Y",3167,1944,0.3167,19.06667,24.93333,12.21667,616,89,24,41.21154,242,86,242,86,12.86667,48.37093,516.4183,31.6,5,26.6,24.93333,12.21667,0.1944,615.8056,""
"177","R051/T07",-28.33,1,47.9,686,1994,"Eucalyptus argophloia","Eucalyptus argophloia","Adnataria","x",10.61,10.37,8.62,8.8,2.9,1.4609,1.87,"Eucalyptus argophloia","Eucalyptus argophloia","","Species","D.Nicolle","Burncluith, Qld",26,37,52,150,44,5,51,7,"Alive","None evident","0","None evident","0","?","","","","","","None evident","Flowered","Flowered",1994,"0",-26.63111111,150.7347222,"Eucalyptus argophloia","Qld","Combination","Y",3121,2021,0.3121,19.59583,25.41667,12.68333,631,94,24,45.15936,258,84,258,84,14.275,50.80071,516.4101,32.5,4.4,28.1,25.41667,12.68333,0.2021,630.7979,""
"178","R051/T05",-29.05,1,49,686,1994,"Eucalyptus argophloia","Eucalyptus argophloia","Adnataria","x",13.43,12.03,11.41,9.94,4.07,1.4805,2.47,"Eucalyptus argophloia","Eucalyptus argophloia","","Species","D.Nicolle","Burncluith, Qld",26,37,52,150,44,5,51,5,"Alive","None evident","0","None evident","0","?","","","","","","None evident","Flowered","Flowered",1994,"0",-26.63111111,150.7347222,"Eucalyptus argophloia","Qld","Combination","Y",3121,2021,0.3121,19.59583,25.41667,12.68333,631,94,24,45.15936,258,84,258,84,14.275,50.80071,516.4101,32.5,4.4,28.1,25.41667,12.68333,0.2021,630.7979,""
"179","R051/T08",-28.52,1,48.4,686,1994,"Eucalyptus argophloia","Eucalyptus argophloia","Adnataria","x",10.46,10.51,9.48,9.23,3.45,1.5085,2.25,"Eucalyptus argophloia","Eucalyptus argophloia","","Species","D.Nicolle","Burncluith, Qld",26,37,52,150,44,5,51,6,"Alive","None evident","0","None evident","0","?","","","","","","Slight","Flowered","Flowered",1994,"1",-26.63111111,150.7347222,"Eucalyptus argophloia","Qld","Combination","Y",3121,2021,0.3121,19.59583,25.41667,12.68333,631,94,24,45.15936,258,84,258,84,14.275,50.80071,516.4101,32.5,4.4,28.1,25.41667,12.68333,0.2021,630.7979,""
"180","R051/T14",-26.2,1.3,51.8,NA,NA,NA,NA,NA,NA,NA,NA,NA,NA,NA,NA,NA,NA,NA,NA,NA,NA,NA,NA,NA,NA,NA,NA,NA,NA,NA,NA,NA,NA,NA,NA,NA,NA,NA,NA,NA,NA,NA,NA,NA,NA,NA,NA,NA,NA,NA,NA,NA,NA,NA,NA,NA,NA,NA,NA,NA,NA,NA,NA,NA,NA,NA,NA,NA,NA,NA,NA,NA,NA,NA,NA,NA,NA
"181","R051/T15",-28.27,1,51.3,NA,NA,NA,NA,NA,NA,NA,NA,NA,NA,NA,NA,NA,NA,NA,NA,NA,NA,NA,NA,NA,NA,NA,NA,NA,NA,NA,NA,NA,NA,NA,NA,NA,NA,NA,NA,NA,NA,NA,NA,NA,NA,NA,NA,NA,NA,NA,NA,NA,NA,NA,NA,NA,NA,NA,NA,NA,NA,NA,NA,NA,NA,NA,NA,NA,NA,NA,NA,NA,NA,NA,NA,NA,NA
"182","R051/T16",-27.24,2,50.1,NA,NA,NA,NA,NA,NA,NA,NA,NA,NA,NA,NA,NA,NA,NA,NA,NA,NA,NA,NA,NA,NA,NA,NA,NA,NA,NA,NA,NA,NA,NA,NA,NA,NA,NA,NA,NA,NA,NA,NA,NA,NA,NA,NA,NA,NA,NA,NA,NA,NA,NA,NA,NA,NA,NA,NA,NA,NA,NA,NA,NA,NA,NA,NA,NA,NA,NA,NA,NA,NA,NA,NA,NA,NA
"183","R052/T01",-25.32,1,50.3,671,1994,"Eucalyptus prava","Eucalyptus prava","Exsertaria","x",11.04,10.83,7.97,8.07,2.45,3.6802,1.29,NA,NA,NA,NA,NA,NA,NA,NA,NA,NA,NA,NA,NA,NA,NA,NA,NA,NA,NA,NA,NA,NA,NA,NA,NA,NA,NA,NA,NA,NA,NA,NA,NA,NA,NA,NA,NA,NA,NA,NA,NA,NA,NA,NA,NA,NA,NA,NA,NA,NA,NA,NA,NA,NA,NA,NA,NA,NA,NA,NA,NA
"184","R052/T04",-27.96,1.7,48.8,671,1994,"Eucalyptus prava","Eucalyptus prava","Exsertaria","x",9.72,9.75,8.4,8.19,3.02,1.6007,1.81,NA,NA,NA,NA,NA,NA,NA,NA,NA,NA,NA,NA,NA,NA,NA,NA,NA,NA,NA,NA,NA,NA,NA,NA,NA,NA,NA,NA,NA,NA,NA,NA,NA,NA,NA,NA,NA,NA,NA,NA,NA,NA,NA,NA,NA,NA,NA,NA,NA,NA,NA,NA,NA,NA,NA,NA,NA,NA,NA,NA,NA
"185","R052/T06",-28.09,1.5,49.5,668,1994,"Eucalyptus amplifolia subsp. sessiliflora","Eucalyptus amplifolia subsp. sessiliflora","Exsertaria","x",8.02,8.63,7.05,6.37,1.74,4.1927,0.97,"Eucalyptus amplifolia subsp. sessiliflora","Eucalyptus amplifolia subsp. sessiliflora","","Subspecies","D.Nicolle","Tenterfield, NSW",29,4,47,152,0,16,52,6,"Alive","Slight","1","Slight","1","?","Scattered","Tertiary branches","3 - 6 months","None evident","","None evident","Flowered","Flowered",1994,"0",-29.07972222,152.0044444,"Eucalyptus amplifolia subsp. sessiliflora","NSW,Qld","Combination","Y",5714,1543,0.5714,14.7,20.06667,8.616667,882,117,37,37.53374,335,134,335,134,12.36667,50.06748,463.0973,26.3,1.6,24.7,20.06667,8.616667,0.1543,881.8457,""
"186","R052/T07",-28.45,1,49.3,668,1994,"Eucalyptus amplifolia subsp. sessiliflora","Eucalyptus amplifolia subsp. sessiliflora","Exsertaria","x",13.37,12.47,12.04,10.11,4.2,4.412,2.14,"Eucalyptus amplifolia subsp. sessiliflora","Eucalyptus amplifolia subsp. sessiliflora","","Subspecies","D.Nicolle","Tenterfield, NSW",29,4,47,152,0,16,52,7,"Alive","None evident","0","None evident","0","?","","","","","","None evident","Flowered","Flowered",1994,"0",-29.07972222,152.0044444,"Eucalyptus amplifolia subsp. sessiliflora","NSW,Qld","Combination","Y",5714,1543,0.5714,14.7,20.06667,8.616667,882,117,37,37.53374,335,134,335,134,12.36667,50.06748,463.0973,26.3,1.6,24.7,20.06667,8.616667,0.1543,881.8457,""
"187","R052/T08",-29.22,1,50.1,668,1994,"Eucalyptus amplifolia subsp. sessiliflora","Eucalyptus amplifolia subsp. sessiliflora","Exsertaria","x",9.11,8.52,7.94,7.37,2.13,3.5233,1.33,"Eucalyptus amplifolia subsp. sessiliflora","Eucalyptus amplifolia subsp. sessiliflora","","Subspecies","D.Nicolle","Tenterfield, NSW",29,4,47,152,0,16,52,8,"Alive","Slight","1","Slight","1","?","None evident","","","","","None evident","Flowered","Flowered",1994,"0",-29.07972222,152.0044444,"Eucalyptus amplifolia subsp. sessiliflora","NSW,Qld","Combination","Y",5714,1543,0.5714,14.7,20.06667,8.616667,882,117,37,37.53374,335,134,335,134,12.36667,50.06748,463.0973,26.3,1.6,24.7,20.06667,8.616667,0.1543,881.8457,""
"188","R052/T09",-29.01,1.4,49.4,674,1994,"Eucalyptus sideroxylon","Eucalyptus sideroxylon","Adnataria","x",9.1,9.66,7.43,6.87,2.11,1.5133,1.26,"Eucalyptus sideroxylon","Eucalyptus sideroxylon","","Species","D.Nicolle","Wallangarra, Qld",28,54,3,151,54,28,52,9,"Alive","None evident","0","None evident","0","?","","","","","","None evident","","",1994,"0",-28.90083333,151.9077778,"Eucalyptus sideroxylon","NSW,Vic,Qld","Combination","Y",5225,1609,0.5225,15.20833,20.73333,8.95,841,110,37,36.45587,318,134,318,134,12.35,49.00793,476.1247,27.2,2,25.2,20.73333,8.95,0.1609,840.8391,""
